[
  {
    "name": "Zena Kaur",
    "phone": "07939063614",
    "postcode": "CT11AN"
  },
  {
    "name": "Zena Laur",
    "phone": "07939083614",
    "postcode": "CT11AN"
  },
  {
    "name": "Jodie",
    "phone": "07719944215",
    "postcode": "CT11AP"
  },
  {
    "name": "Torron Iveson",
    "phone": "07854332350",
    "postcode": "CT11AP"
  },
  {
    "name": "Amy Read",
    "phone": "07466435690",
    "postcode": "CT11AQ"
  },
  {
    "name": "Racheal Falola",
    "phone": "07944526657",
    "postcode": "CT11AR"
  },
  {
    "name": "Greg Broad",
    "phone": "07857436002",
    "postcode": "CT11AS"
  },
  {
    "name": "Ella Richardson",
    "phone": "07872936906",
    "postcode": "CT11AS"
  },
  {
    "name": "T Furusa",
    "phone": "07482394130",
    "postcode": "CT11AT"
  },
  {
    "name": "Michaela",
    "phone": "07540843567",
    "postcode": "CT11AT"
  },
  {
    "name": "Chris Sharp",
    "phone": "07540939982",
    "postcode": "CT11AU"
  },
  {
    "name": "JJ Gallagher",
    "phone": "07415498876",
    "postcode": "CT11BA"
  },
  {
    "name": "William Bettles",
    "phone": "07949406794",
    "postcode": "CT11BA"
  },
  {
    "name": "Flaviana Till",
    "phone": "07896224048",
    "postcode": "CT11BB"
  },
  {
    "name": "Olivia Braddon",
    "phone": "07875968392",
    "postcode": "CT11BF"
  },
  {
    "name": "megan",
    "phone": "07523454371",
    "postcode": "CT11BJ"
  },
  {
    "name": "abozar",
    "phone": "07783062710",
    "postcode": "CT11BL"
  },
  {
    "name": "Alistair Brown",
    "phone": "07517 694741",
    "postcode": "CT11BP"
  },
  {
    "name": "Peter Sives",
    "phone": "07804307054",
    "postcode": "CT11BU"
  },
  {
    "name": "Jade",
    "phone": "07111101351",
    "postcode": "CT11BX"
  },
  {
    "name": "Jade",
    "phone": "07411101351",
    "postcode": "CT11BX"
  },
  {
    "name": "Tessa Zare",
    "phone": "07711804721",
    "postcode": "CT11DA"
  },
  {
    "name": "michael jordan",
    "phone": "07531040936",
    "postcode": "CT11DA"
  },
  {
    "name": "Danielle Day,",
    "phone": "07917401825",
    "postcode": "CT11DA"
  },
  {
    "name": "Katie",
    "phone": "07950255683",
    "postcode": "CT11DA"
  },
  {
    "name": "Alli Price",
    "phone": "07595182296",
    "postcode": "CT11DA"
  },
  {
    "name": "Joe Upton",
    "phone": "07867487843",
    "postcode": "CT11DA"
  },
  {
    "name": "Andrew Lucas",
    "phone": "07852150237",
    "postcode": "CT11DA"
  },
  {
    "name": "Abhisek Gurung",
    "phone": "07473061788",
    "postcode": "CT11DB"
  },
  {
    "name": "Lily fagan",
    "phone": "07419990294",
    "postcode": "CT11DB"
  },
  {
    "name": "Millie",
    "phone": "07949748528",
    "postcode": "CT11DB"
  },
  {
    "name": "Irvine",
    "phone": "07582914695",
    "postcode": "CT11DH"
  },
  {
    "name": "Michael Brown",
    "phone": "07446526293",
    "postcode": "CT11DS"
  },
  {
    "name": "Emma Fenton",
    "phone": "07494252816",
    "postcode": "CT11DS"
  },
  {
    "name": "alan kelly",
    "phone": "07918924392",
    "postcode": "CT11DT"
  },
  {
    "name": "Sami Hamlaoui",
    "phone": "07411083388",
    "postcode": "CT11DW"
  },
  {
    "name": "Dawn Drew",
    "phone": "07804212524",
    "postcode": "CT11DZ"
  },
  {
    "name": "Rebecca Sheehy",
    "phone": "07813364317",
    "postcode": "CT11DZ"
  },
  {
    "name": "Matthew White",
    "phone": "07714 649985",
    "postcode": "CT11EA"
  },
  {
    "name": "Max",
    "phone": "07921861583",
    "postcode": "CT11EB"
  },
  {
    "name": "helen catmull",
    "phone": "07802606443",
    "postcode": "CT11ED"
  },
  {
    "name": "Laurie",
    "phone": "07725861401",
    "postcode": "CT11EE"
  },
  {
    "name": "Abbie",
    "phone": "07933746155",
    "postcode": "CT11EE"
  },
  {
    "name": "Gentina",
    "phone": "07815957282",
    "postcode": "CT11EF"
  },
  {
    "name": "S Knight",
    "phone": "07515105313",
    "postcode": "CT11EJ"
  },
  {
    "name": "Philippa Ruddlesdin",
    "phone": "07711958159",
    "postcode": "CT11EJ"
  },
  {
    "name": "charlene woodley",
    "phone": "07864932303",
    "postcode": "CT11EJ"
  },
  {
    "name": "Lee Piggott",
    "phone": "07984358454",
    "postcode": "CT11EQ"
  },
  {
    "name": "Caroline Mabbs",
    "phone": "07785365965",
    "postcode": "CT11ES"
  },
  {
    "name": "Melanie Wallace",
    "phone": "07795026961",
    "postcode": "CT11ES"
  },
  {
    "name": "Caroline Mabbs",
    "phone": "07768986876",
    "postcode": "CT11ES"
  },
  {
    "name": "Sam Hall",
    "phone": "07754663281",
    "postcode": "CT11ET"
  },
  {
    "name": "Danielle Darling",
    "phone": "07880345937",
    "postcode": "CT11EU"
  },
  {
    "name": "Danny Sharpe",
    "phone": "07515651832",
    "postcode": "CT11EW"
  },
  {
    "name": "Abbie Spearing",
    "phone": "07711077472",
    "postcode": "CT11EX"
  },
  {
    "name": "Dylan Hernaman",
    "phone": "07460791424",
    "postcode": "CT11EX"
  },
  {
    "name": "Mark Rouse",
    "phone": "07815161241",
    "postcode": "CT11EY"
  },
  {
    "name": "Rosie",
    "phone": "07835360486",
    "postcode": "CT11EY"
  },
  {
    "name": "Oliver Locke",
    "phone": "07378539530",
    "postcode": "CT11FN"
  },
  {
    "name": "Leanne Sequenza",
    "phone": "07715569107",
    "postcode": "CT11FN"
  },
  {
    "name": "Leanne Sequenza",
    "phone": "07715569407",
    "postcode": "CT11FN"
  },
  {
    "name": "aaron hadlow",
    "phone": "07857651929",
    "postcode": "CT11FT"
  },
  {
    "name": "Ik Og",
    "phone": "07432137597",
    "postcode": "CT11GN"
  },
  {
    "name": "Ik Og",
    "phone": "07432137537",
    "postcode": "CT11GN"
  },
  {
    "name": "Alfie",
    "phone": "07496531457",
    "postcode": "CT11GR"
  },
  {
    "name": "Eithar",
    "phone": "07745044231",
    "postcode": "CT11GT"
  },
  {
    "name": "Rebecca Walczak",
    "phone": "07759787311",
    "postcode": "CT11GT"
  },
  {
    "name": "Jai Fuller",
    "phone": "07961726559",
    "postcode": "CT11HP"
  },
  {
    "name": "Sophie",
    "phone": "07734623876",
    "postcode": "CT11HT"
  },
  {
    "name": "Natasha Challacombe",
    "phone": "07761039754",
    "postcode": "CT11HT"
  },
  {
    "name": "J L Russell",
    "phone": "01227760819",
    "postcode": "CT11HT"
  },
  {
    "name": "Ben Wilson",
    "phone": "07835240274",
    "postcode": "CT11HU"
  },
  {
    "name": "Ellena",
    "phone": "07584293539",
    "postcode": "CT11HU"
  },
  {
    "name": "Ellena",
    "phone": "07584292539",
    "postcode": "CT11HU"
  },
  {
    "name": "Jack Richards",
    "phone": "07936525510",
    "postcode": "CT11HW"
  },
  {
    "name": "Phillip Keeble",
    "phone": "07885641484",
    "postcode": "CT11HW"
  },
  {
    "name": "Peter Lane",
    "phone": "07455797727",
    "postcode": "CT11HW"
  },
  {
    "name": "Thomas Wisden",
    "phone": "07971664742",
    "postcode": "CT11HW"
  },
  {
    "name": "Charlie Preston",
    "phone": "07534936007",
    "postcode": "CT11HW"
  },
  {
    "name": "amy ogilvie",
    "phone": "07903650534",
    "postcode": "CT11HW"
  },
  {
    "name": "othniel anyinsah",
    "phone": "07976420665",
    "postcode": "CT11HZ"
  },
  {
    "name": "Ben McCracken",
    "phone": "07880498074",
    "postcode": "CT11HZ"
  },
  {
    "name": "Othniel Anyinsah-bonzie",
    "phone": "0 07976 420665",
    "postcode": "CT11HZ"
  },
  {
    "name": "Theresa",
    "phone": "07837456137",
    "postcode": "CT11HZ"
  },
  {
    "name": "Frazer Edwards",
    "phone": "07760200438",
    "postcode": "CT11HZ"
  },
  {
    "name": "Charlie",
    "phone": "07805892913",
    "postcode": "CT11JB"
  },
  {
    "name": "Dean Philippe",
    "phone": "07774585974",
    "postcode": "CT11JB"
  },
  {
    "name": "Jim Wright",
    "phone": "07714881882",
    "postcode": "CT11JB"
  },
  {
    "name": "valentine mudyanevana",
    "phone": "07753110214",
    "postcode": "CT11JB"
  },
  {
    "name": "Prabesh Sherchan",
    "phone": "07906262735",
    "postcode": "CT11JE"
  },
  {
    "name": "Lianne Devaney",
    "phone": "07477450492",
    "postcode": "CT11JE"
  },
  {
    "name": "Julie Mc Gevna",
    "phone": "07851320590",
    "postcode": "CT11JF"
  },
  {
    "name": "Nadine Martin",
    "phone": "07435424427",
    "postcode": "CT11JF"
  },
  {
    "name": "C Tidmas",
    "phone": "07807060247",
    "postcode": "CT11JF"
  },
  {
    "name": "jane longley",
    "phone": "07983872081",
    "postcode": "CT11JJ"
  },
  {
    "name": "Charlene",
    "phone": "07548311528",
    "postcode": "CT11JP"
  },
  {
    "name": "Sadie Dabe",
    "phone": "07508739671",
    "postcode": "CT11JT"
  },
  {
    "name": "Mark fane",
    "phone": "07572417949",
    "postcode": "CT11JT"
  },
  {
    "name": "Dinusha Pattini Kuttige",
    "phone": "07514171583",
    "postcode": "CT11LA"
  },
  {
    "name": "Jadene Barker",
    "phone": "07769756701",
    "postcode": "CT11LH"
  },
  {
    "name": "charlotte",
    "phone": "07547798784",
    "postcode": "CT11LJ"
  },
  {
    "name": "Dan",
    "phone": "07976597939",
    "postcode": "CT11LN"
  },
  {
    "name": "Aliya Hasan",
    "phone": "07535800847",
    "postcode": "CT11LN"
  },
  {
    "name": "nicole",
    "phone": "07704136399",
    "postcode": "CT11LN"
  },
  {
    "name": "andrew",
    "phone": "07444610875",
    "postcode": "CT11LR"
  },
  {
    "name": "Samuel Medhurst",
    "phone": "07591309126",
    "postcode": "CT11LT"
  },
  {
    "name": "Cormac Robinson",
    "phone": "07860173745",
    "postcode": "CT11LW"
  },
  {
    "name": "Sabrina Marano",
    "phone": "07709218419",
    "postcode": "CT11LY"
  },
  {
    "name": "Louiza",
    "phone": "07725432232",
    "postcode": "CT11NA"
  },
  {
    "name": "Kealey",
    "phone": "07738536011",
    "postcode": "CT11NA"
  },
  {
    "name": "abbie Mayes",
    "phone": "07855797619",
    "postcode": "CT11NA"
  },
  {
    "name": "Jess Baker",
    "phone": "07740375709",
    "postcode": "CT11NB"
  },
  {
    "name": "Michelle Wadforth",
    "phone": "07809433391",
    "postcode": "CT11NB"
  },
  {
    "name": "Yazz Lawrence",
    "phone": "07535512660",
    "postcode": "CT11NH"
  },
  {
    "name": "Jasmine",
    "phone": "07585958773",
    "postcode": "CT11NH"
  },
  {
    "name": "Simon Reeks",
    "phone": "07761990231",
    "postcode": "CT11NP"
  },
  {
    "name": "Tyler williams",
    "phone": "07539461832",
    "postcode": "CT11NP"
  },
  {
    "name": "Michael Sonny-Jarrett",
    "phone": "07715541255",
    "postcode": "CT11NR"
  },
  {
    "name": "Danni",
    "phone": "0777236486",
    "postcode": "CT11NR"
  },
  {
    "name": "Natika Clarke",
    "phone": "07595206068",
    "postcode": "CT11NS"
  },
  {
    "name": "Alice Chapman",
    "phone": "07730366926",
    "postcode": "CT11NS"
  },
  {
    "name": "liz",
    "phone": "07707917477",
    "postcode": "CT11NT"
  },
  {
    "name": "katie cuthbert",
    "phone": "07473973893",
    "postcode": "CT11NU"
  },
  {
    "name": "lola",
    "phone": "07507904656",
    "postcode": "CT11NZ"
  },
  {
    "name": "Lucy Greig",
    "phone": "01227732473",
    "postcode": "CT11PA"
  },
  {
    "name": "Sarah",
    "phone": "07940169623",
    "postcode": "CT11PD"
  },
  {
    "name": "David Knight",
    "phone": "07732958478",
    "postcode": "CT11PS"
  },
  {
    "name": "Ben davis",
    "phone": "07769994300",
    "postcode": "CT11PU"
  },
  {
    "name": "Jodie grima",
    "phone": "07833031717",
    "postcode": "CT11PU"
  },
  {
    "name": "jess",
    "phone": "07873454582",
    "postcode": "CT11PZ"
  },
  {
    "name": "Jo",
    "phone": "07875056253",
    "postcode": "CT11QB"
  },
  {
    "name": "Aaron Hughes",
    "phone": "07969545542",
    "postcode": "CT11QB"
  },
  {
    "name": "Megan Stott",
    "phone": "07593649791",
    "postcode": "CT11QB"
  },
  {
    "name": "Connie bowyer",
    "phone": "07875624458",
    "postcode": "CT11QB"
  },
  {
    "name": "Samantha Faye",
    "phone": "07759069366",
    "postcode": "CT11QD"
  },
  {
    "name": "Jessica Flanagan",
    "phone": "07889009643",
    "postcode": "CT11QD"
  },
  {
    "name": "Ida Shakespeare",
    "phone": "0779900142",
    "postcode": "CT11QE"
  },
  {
    "name": "Rebecca Gliddon",
    "phone": "07502295943",
    "postcode": "CT11QE"
  },
  {
    "name": "Sam",
    "phone": "07548616754",
    "postcode": "CT11QE"
  },
  {
    "name": "Scott r worner",
    "phone": "07795625672",
    "postcode": "CT11QE"
  },
  {
    "name": "Matt Blake",
    "phone": "07855918106",
    "postcode": "CT11QF"
  },
  {
    "name": "Jacob Handley",
    "phone": "07592550109",
    "postcode": "CT11QG"
  },
  {
    "name": "Lauren Miranda",
    "phone": "07557349649",
    "postcode": "CT11QG"
  },
  {
    "name": "Ben",
    "phone": "07506984257",
    "postcode": "CT11QJ"
  },
  {
    "name": "Ryan Bing",
    "phone": "07528131638",
    "postcode": "CT11QJ"
  },
  {
    "name": "Andew Leach",
    "phone": "07552447564",
    "postcode": "CT11QJ"
  },
  {
    "name": "Danielle Varney",
    "phone": "07535963406",
    "postcode": "CT11QL"
  },
  {
    "name": "Olivia Gallagher",
    "phone": "07462443363",
    "postcode": "CT11QL"
  },
  {
    "name": "Alex Lima",
    "phone": "07446932557",
    "postcode": "CT11QL"
  },
  {
    "name": "Larissa Saunders",
    "phone": "07933548125",
    "postcode": "CT11QL"
  },
  {
    "name": "sarah Mcclelland",
    "phone": "07769505558",
    "postcode": "CT11QL"
  },
  {
    "name": "Dylan",
    "phone": "07961085481",
    "postcode": "CT11QL"
  },
  {
    "name": "Sam Blackmore",
    "phone": "07870992255",
    "postcode": "CT11QL"
  },
  {
    "name": "Emily Newell",
    "phone": "07769571463",
    "postcode": "CT11QL"
  },
  {
    "name": "Jordan Cartwright",
    "phone": "07597573737",
    "postcode": "CT11QL"
  },
  {
    "name": "Henry Essam",
    "phone": "07808 646663",
    "postcode": "CT11QL"
  },
  {
    "name": "Abi",
    "phone": "07880253768",
    "postcode": "CT11QL"
  },
  {
    "name": "Henry Essam",
    "phone": "01162404808",
    "postcode": "CT11QL"
  },
  {
    "name": "Daniel Higgins",
    "phone": "07713974400",
    "postcode": "CT11QN"
  },
  {
    "name": "Phoebee Green",
    "phone": "07764859040",
    "postcode": "CT11QP"
  },
  {
    "name": "Rosie",
    "phone": "07403271609",
    "postcode": "CT11QP"
  },
  {
    "name": "Charlotte Kirb",
    "phone": "07476624442",
    "postcode": "CT11QP"
  },
  {
    "name": "Jennie Steinholt",
    "phone": "07881387848",
    "postcode": "CT11QT"
  },
  {
    "name": "Emily Webb",
    "phone": "07834385170",
    "postcode": "CT11QT"
  },
  {
    "name": "Danni",
    "phone": "07960877362",
    "postcode": "CT11QU"
  },
  {
    "name": "Joseph",
    "phone": "07432604708",
    "postcode": "CT11QW"
  },
  {
    "name": "Julia Schieffer",
    "phone": "07756719884",
    "postcode": "CT11QW"
  },
  {
    "name": "Claudia",
    "phone": "07847900706",
    "postcode": "CT11QW"
  },
  {
    "name": "Olivia Gallagher",
    "phone": "07252443363",
    "postcode": "CT11QW"
  },
  {
    "name": "Emily Berry",
    "phone": "07960309941",
    "postcode": "CT11QW"
  },
  {
    "name": "Hattie Brooks",
    "phone": "07794045841",
    "postcode": "CT11QW"
  },
  {
    "name": "Nana Gaituah",
    "phone": "07930401193",
    "postcode": "CT11RE"
  },
  {
    "name": "Tracy Llewellyn",
    "phone": "07738113478",
    "postcode": "CT11RF"
  },
  {
    "name": "Amy Floyd",
    "phone": "07891211424",
    "postcode": "CT11RF"
  },
  {
    "name": "Jack McCormack",
    "phone": "07908274001",
    "postcode": "CT11RF"
  },
  {
    "name": "Hannah Floyd",
    "phone": "01227785905",
    "postcode": "CT11RF"
  },
  {
    "name": "Kevin Farmer",
    "phone": "07947143028",
    "postcode": "CT11RF"
  },
  {
    "name": "Amanda Okonya",
    "phone": "07852971830",
    "postcode": "CT11RG"
  },
  {
    "name": "Andy",
    "phone": "07752201466",
    "postcode": "CT11RG"
  },
  {
    "name": "Jade Winslow",
    "phone": "07884943403",
    "postcode": "CT11RJ"
  },
  {
    "name": "Kristen Pinfold",
    "phone": "07475619158",
    "postcode": "CT11RL"
  },
  {
    "name": "Kristen Pinfold",
    "phone": "07475619159",
    "postcode": "CT11RL"
  },
  {
    "name": "Simon",
    "phone": "07538054784",
    "postcode": "CT11RL"
  },
  {
    "name": "Craig Grimshaw",
    "phone": "07593305848",
    "postcode": "CT11RN"
  },
  {
    "name": "Jessica Macculloch",
    "phone": "07703192510",
    "postcode": "CT11RN"
  },
  {
    "name": "Mel Baker",
    "phone": "07828226306",
    "postcode": "CT11RP"
  },
  {
    "name": "Emiliyan Valerie",
    "phone": "07477936218",
    "postcode": "CT11RP"
  },
  {
    "name": "Nathan Larkin",
    "phone": "07402909922",
    "postcode": "CT11RQ"
  },
  {
    "name": "Melissa Couchman",
    "phone": "07528455747",
    "postcode": "CT11RQ"
  },
  {
    "name": "Jason",
    "phone": "07754389890",
    "postcode": "CT11RQ"
  },
  {
    "name": "Natasha Conley",
    "phone": "07703573044",
    "postcode": "CT11RQ"
  },
  {
    "name": "Nathan Larkin",
    "phone": "07702909922",
    "postcode": "CT11RQ"
  },
  {
    "name": "Tom",
    "phone": "07710006420",
    "postcode": "CT11RQ"
  },
  {
    "name": "Tanis Izli",
    "phone": "07415616935",
    "postcode": "CT11RQ"
  },
  {
    "name": "Ben Mason",
    "phone": "07592721060",
    "postcode": "CT11RR"
  },
  {
    "name": "Jack Denton",
    "phone": "02088381493",
    "postcode": "CT11RR"
  },
  {
    "name": "David Schooling",
    "phone": "07554994080",
    "postcode": "CT11RR"
  },
  {
    "name": "Sophie Coleman",
    "phone": "07453326243",
    "postcode": "CT11RR"
  },
  {
    "name": "mrs t gurr",
    "phone": "01227769077",
    "postcode": "CT11RS"
  },
  {
    "name": "Nina Sochorova",
    "phone": "04421910630847",
    "postcode": "CT11RT"
  },
  {
    "name": "Cristina",
    "phone": "07455858580",
    "postcode": "CT11RT"
  },
  {
    "name": "Anny Tsai",
    "phone": "07465688128",
    "postcode": "CT11RT"
  },
  {
    "name": "Charlotte",
    "phone": "07732700055",
    "postcode": "CT11RT"
  },
  {
    "name": "Charlotte Harris",
    "phone": "07803828525",
    "postcode": "CT11RT"
  },
  {
    "name": "Ellen Bradley",
    "phone": "07725873745",
    "postcode": "CT11RT"
  },
  {
    "name": "Tessa Highton",
    "phone": "07599760284",
    "postcode": "CT11RU"
  },
  {
    "name": "James Anthony Howe",
    "phone": "07432863211",
    "postcode": "CT11RZ"
  },
  {
    "name": "Nelson Walker",
    "phone": "07539935041",
    "postcode": "CT11RZ"
  },
  {
    "name": "Chris Martin",
    "phone": "07714924326",
    "postcode": "CT11SA"
  },
  {
    "name": "Lisa Gilbert",
    "phone": "07947705560",
    "postcode": "CT11SA"
  },
  {
    "name": "Charlie Jones",
    "phone": "07557773935",
    "postcode": "CT11SA"
  },
  {
    "name": "Victoria Woodbridge",
    "phone": "07901641804",
    "postcode": "CT11SA"
  },
  {
    "name": "Ugo emekwue",
    "phone": "07739477881",
    "postcode": "CT11SA"
  },
  {
    "name": "Hans andonov",
    "phone": "07483330071",
    "postcode": "CT11SA"
  },
  {
    "name": "Karen Jenkinson",
    "phone": "07725115662",
    "postcode": "CT11SA"
  },
  {
    "name": "Luke Overton",
    "phone": "07895393559",
    "postcode": "CT11SA"
  },
  {
    "name": "Fergus Endersby",
    "phone": "07747157569",
    "postcode": "CT11SB"
  },
  {
    "name": "Rachel Rees",
    "phone": "07790421113",
    "postcode": "CT11SF"
  },
  {
    "name": "Olivia Cavey",
    "phone": "07595893986",
    "postcode": "CT11SF"
  },
  {
    "name": "Natasha Evans",
    "phone": "07761295052",
    "postcode": "CT11SL"
  },
  {
    "name": "Naz Carew",
    "phone": "07841071613",
    "postcode": "CT11SL"
  },
  {
    "name": "Cam Obbard",
    "phone": "07542010140",
    "postcode": "CT11SL"
  },
  {
    "name": "Sonnie Butler",
    "phone": "07860222831",
    "postcode": "CT11SL"
  },
  {
    "name": "Abigail Hagger",
    "phone": "07455331217",
    "postcode": "CT11SR"
  },
  {
    "name": "Charlotte Harlow",
    "phone": "07891119753",
    "postcode": "CT11SS"
  },
  {
    "name": "Aaron White",
    "phone": "07455650530",
    "postcode": "CT11SW"
  },
  {
    "name": "Rebecca Leonard",
    "phone": "07714211496",
    "postcode": "CT11TA"
  },
  {
    "name": "Blake Stockwell",
    "phone": "07380566158",
    "postcode": "CT11TE"
  },
  {
    "name": "Gina Nahab",
    "phone": "07731810121",
    "postcode": "CT11TJ"
  },
  {
    "name": "Shola",
    "phone": "07507325710",
    "postcode": "CT11TQ"
  },
  {
    "name": "Haley",
    "phone": "07545600850",
    "postcode": "CT11TQ"
  },
  {
    "name": "Jasmine Brockman",
    "phone": "07985642875",
    "postcode": "CT11TR"
  },
  {
    "name": "Leanne Nahab",
    "phone": "07743572321",
    "postcode": "CT11TR"
  },
  {
    "name": "Scott Loosely",
    "phone": "07581523906",
    "postcode": "CT11TR"
  },
  {
    "name": "Jasmine Brockman",
    "phone": "07525761818",
    "postcode": "CT11TR"
  },
  {
    "name": "Jasmine Brockmat",
    "phone": "07525761816",
    "postcode": "CT11TR"
  },
  {
    "name": "scott loosley",
    "phone": "0447581523906",
    "postcode": "CT11TR"
  },
  {
    "name": "Skylar Kelty",
    "phone": "07807430612",
    "postcode": "CT11TS"
  },
  {
    "name": "Sophie Hawkes",
    "phone": "07890262089",
    "postcode": "CT11UH"
  },
  {
    "name": "Lewis Parker",
    "phone": "07446837265",
    "postcode": "CT11UT"
  },
  {
    "name": "Ashley Bender",
    "phone": "07883022944",
    "postcode": "CT11UY"
  },
  {
    "name": "Tom Hayes",
    "phone": "07724321991",
    "postcode": "CT11UY"
  },
  {
    "name": "Paige Archer",
    "phone": "07835487336",
    "postcode": "CT11WW"
  },
  {
    "name": "Laura Brewerton",
    "phone": "07517105980",
    "postcode": "CT11WX"
  },
  {
    "name": "Evie",
    "phone": "07501363638",
    "postcode": "CT11WX"
  },
  {
    "name": "Sabrina Soosaiaiyah",
    "phone": "07428850199",
    "postcode": "CT11XG"
  },
  {
    "name": "Sophie",
    "phone": "07984786063",
    "postcode": "CT11XG"
  },
  {
    "name": "Gareth Baker",
    "phone": "07817304039",
    "postcode": "CT11XG"
  },
  {
    "name": "Eun Jin Moung",
    "phone": "07592132499",
    "postcode": "CT11XJ"
  },
  {
    "name": "Miriam Hunt",
    "phone": "07701025978",
    "postcode": "CT11XJ"
  },
  {
    "name": "Fateen",
    "phone": "07930531089",
    "postcode": "CT11XP"
  },
  {
    "name": "Benjamin wordsworth",
    "phone": "07534898785",
    "postcode": "CT11XP"
  },
  {
    "name": "Fateen",
    "phone": "0            +44 7930 531089?",
    "postcode": "CT11XP"
  },
  {
    "name": "Robert Connor",
    "phone": "07983044183",
    "postcode": "CT11XQ"
  },
  {
    "name": "James Golden,",
    "phone": "07429702040",
    "postcode": "CT11XQ"
  },
  {
    "name": "Ruth Webb",
    "phone": "01227451698",
    "postcode": "CT11XR"
  },
  {
    "name": "Ruth Webb",
    "phone": "07535611480",
    "postcode": "CT11XR"
  },
  {
    "name": "Nicole",
    "phone": "07552073407",
    "postcode": "CT11YH"
  },
  {
    "name": "Jacqui Seaward",
    "phone": "01227763646",
    "postcode": "CT11YH"
  },
  {
    "name": "Christopher Murphy",
    "phone": "07725197037",
    "postcode": "CT11YJ"
  },
  {
    "name": "Ben Wright",
    "phone": "01227454381",
    "postcode": "CT11YL"
  },
  {
    "name": "Mahfuzur Rahman",
    "phone": "07927530459",
    "postcode": "CT11YN"
  },
  {
    "name": "Dawud Khan",
    "phone": "07578519222",
    "postcode": "CT11YN"
  },
  {
    "name": "Kayleigh",
    "phone": "07842122901",
    "postcode": "CT11YN"
  },
  {
    "name": "Ola Adesina",
    "phone": "07967249131",
    "postcode": "CT11YN"
  },
  {
    "name": "Mitchell Woollcott",
    "phone": "07443425207",
    "postcode": "CT11YP"
  },
  {
    "name": "George Ephgrave",
    "phone": "07743304745",
    "postcode": "CT11YP"
  },
  {
    "name": "Callum Cooney",
    "phone": "07540946550",
    "postcode": "CT11YP"
  },
  {
    "name": "Ellen",
    "phone": "07806615876",
    "postcode": "CT11YP"
  },
  {
    "name": "jordan basford",
    "phone": "07543773727",
    "postcode": "CT11YP"
  },
  {
    "name": "Cheryl",
    "phone": "07454945961",
    "postcode": "CT11YP"
  },
  {
    "name": "Emily Prest",
    "phone": "07454136661",
    "postcode": "CT11YP"
  },
  {
    "name": "Stu Read",
    "phone": "07914435775",
    "postcode": "CT11YQ"
  },
  {
    "name": "Sadie",
    "phone": "07792173854",
    "postcode": "CT11YS"
  },
  {
    "name": "Marie",
    "phone": "01227639667",
    "postcode": "CT11YS"
  },
  {
    "name": "Adam Hazelwood",
    "phone": "07411122397",
    "postcode": "CT11YS"
  },
  {
    "name": "Cameron",
    "phone": "07634319955",
    "postcode": "CT11YS"
  },
  {
    "name": "Georgia Horsley",
    "phone": "07572351153",
    "postcode": "CT11YS"
  },
  {
    "name": "Aiden",
    "phone": "07860237673",
    "postcode": "CT11YS"
  },
  {
    "name": "Gemma Hubert",
    "phone": "07938746562",
    "postcode": "CT11YS"
  },
  {
    "name": "Cameron",
    "phone": "07634319956",
    "postcode": "CT11YS"
  },
  {
    "name": "Jack Beresford",
    "phone": "07517133150",
    "postcode": "CT11YS"
  },
  {
    "name": "Sophie Shemming",
    "phone": "07554321771",
    "postcode": "CT11YS"
  },
  {
    "name": "Katie",
    "phone": "07736766543",
    "postcode": "CT11YS"
  },
  {
    "name": "Mathew Westrep",
    "phone": "07463388215",
    "postcode": "CT11YS"
  },
  {
    "name": "Antonia Ramirez",
    "phone": "07713982808",
    "postcode": "CT11YS"
  },
  {
    "name": "Amber Bryant",
    "phone": "07904102421",
    "postcode": "CT11YS"
  },
  {
    "name": "Amy Duffield",
    "phone": "07847479922",
    "postcode": "CT11YS"
  },
  {
    "name": "Peter Bennett",
    "phone": "07546484472",
    "postcode": "CT11YT"
  },
  {
    "name": "Daniel Bradatanu",
    "phone": "07446979559",
    "postcode": "CT11YT"
  },
  {
    "name": "lisa power",
    "phone": "01227506333",
    "postcode": "CT11ZJ"
  },
  {
    "name": "ANKIT PATEL",
    "phone": "07460365516",
    "postcode": "CT12AT"
  },
  {
    "name": "Rebecca Benson",
    "phone": "07507359556",
    "postcode": "CT12AU"
  },
  {
    "name": "Olivia Lomax",
    "phone": "07794812837",
    "postcode": "CT12DA"
  },
  {
    "name": "Rory Ashwell",
    "phone": "07851443310",
    "postcode": "CT12DA"
  },
  {
    "name": "Samuel Bartholomew",
    "phone": "07828887905",
    "postcode": "CT12DB"
  },
  {
    "name": "Tom",
    "phone": "07957479755",
    "postcode": "CT12DB"
  },
  {
    "name": "Timmy",
    "phone": "07850166977",
    "postcode": "CT12DE"
  },
  {
    "name": "Joe Giddings",
    "phone": "0447530132506",
    "postcode": "CT12DH"
  },
  {
    "name": "Shamma",
    "phone": "07477294204",
    "postcode": "CT12DH"
  },
  {
    "name": "Karys",
    "phone": "07960407227",
    "postcode": "CT12DH"
  },
  {
    "name": "Yumna Kumran",
    "phone": "07575571649",
    "postcode": "CT12DJ"
  },
  {
    "name": "Becky Fleming",
    "phone": "07497350878",
    "postcode": "CT12DJ"
  },
  {
    "name": "Nicolo Foti",
    "phone": "07801203728",
    "postcode": "CT12DJ"
  },
  {
    "name": "Rosie Ranson",
    "phone": "07999054561",
    "postcode": "CT12DJ"
  },
  {
    "name": "Adam Leach",
    "phone": "07427 469329",
    "postcode": "CT12DJ"
  },
  {
    "name": "India",
    "phone": "07955388396",
    "postcode": "CT12DL"
  },
  {
    "name": "India",
    "phone": "07955388386",
    "postcode": "CT12DL"
  },
  {
    "name": "michalis",
    "phone": "07521263590",
    "postcode": "CT12DP"
  },
  {
    "name": "Tom Millen",
    "phone": "07765360307",
    "postcode": "CT12DU"
  },
  {
    "name": "Amal",
    "phone": "07956554369",
    "postcode": "CT12DX"
  },
  {
    "name": "Amal",
    "phone": "07956554389",
    "postcode": "CT12DX"
  },
  {
    "name": "Sarey Al-Salmi",
    "phone": "07880816106",
    "postcode": "CT12DX"
  },
  {
    "name": "Christopher Stibbards",
    "phone": "07861469094",
    "postcode": "CT12DX"
  },
  {
    "name": "Rebecca Berry",
    "phone": "07584077297",
    "postcode": "CT12FP"
  },
  {
    "name": "naomi mann",
    "phone": "07950784114",
    "postcode": "CT12FP"
  },
  {
    "name": "Tim Byron",
    "phone": "0 07796 636156",
    "postcode": "CT12FP"
  },
  {
    "name": "Michael",
    "phone": "07769690761",
    "postcode": "CT12FQ"
  },
  {
    "name": "Michael North",
    "phone": "07497160975",
    "postcode": "CT12FQ"
  },
  {
    "name": "Amelia",
    "phone": "07975747245",
    "postcode": "CT12FQ"
  },
  {
    "name": "Jade Brown",
    "phone": "07752200168",
    "postcode": "CT12FS"
  },
  {
    "name": "Nura Al-Kital",
    "phone": "07847718680",
    "postcode": "CT12FS"
  },
  {
    "name": "Harry Hamond",
    "phone": "07786743145",
    "postcode": "CT12FU"
  },
  {
    "name": "Chloe Bunny",
    "phone": "07599293352",
    "postcode": "CT12FU"
  },
  {
    "name": "Abdulaziz Alrashed",
    "phone": "07471561598",
    "postcode": "CT12FX"
  },
  {
    "name": "Adam Chaang",
    "phone": "07411905718",
    "postcode": "CT12FZ"
  },
  {
    "name": "Aatika Rizvi",
    "phone": "07975511825",
    "postcode": "CT12HH"
  },
  {
    "name": "Ayla Wessels",
    "phone": "07467691623",
    "postcode": "CT12HH"
  },
  {
    "name": "Christina Rundell",
    "phone": "07403393256",
    "postcode": "CT12HS"
  },
  {
    "name": "Ben Kelly",
    "phone": "07999033068",
    "postcode": "CT12HZ"
  },
  {
    "name": "Johnson Chen",
    "phone": "07769854732",
    "postcode": "CT12JJ"
  },
  {
    "name": "Renuka",
    "phone": "07956030230",
    "postcode": "CT12LR"
  },
  {
    "name": "Cati Vacher",
    "phone": "07841039243",
    "postcode": "CT12LR"
  },
  {
    "name": "Andrew Parramore",
    "phone": "07538052604",
    "postcode": "CT12LS"
  },
  {
    "name": "Natchari Ketkaeo",
    "phone": "07482603290",
    "postcode": "CT12NR"
  },
  {
    "name": "Tom Wilkinson",
    "phone": "07596106268",
    "postcode": "CT12NR"
  },
  {
    "name": "Lauren Margaret",
    "phone": "07907086554",
    "postcode": "CT12NS"
  },
  {
    "name": "Alia",
    "phone": "07432320817",
    "postcode": "CT12NX"
  },
  {
    "name": "Joe Sharp",
    "phone": "07712539508",
    "postcode": "CT12NZ"
  },
  {
    "name": "Max Bortoli",
    "phone": "07835713873",
    "postcode": "CT12NZ"
  },
  {
    "name": "Sophie treasaden",
    "phone": "07854252588",
    "postcode": "CT12NZ"
  },
  {
    "name": "Lucy Barnes",
    "phone": "07970069769",
    "postcode": "CT12PB"
  },
  {
    "name": "Lucy Barnes",
    "phone": "07970009769",
    "postcode": "CT12PB"
  },
  {
    "name": "Rebecca Francis",
    "phone": "07702570582",
    "postcode": "CT12PD"
  },
  {
    "name": "Paul Ainsworth",
    "phone": "07854 161094",
    "postcode": "CT12PD"
  },
  {
    "name": "Sophie Harvey",
    "phone": "07854260122",
    "postcode": "CT12PD"
  },
  {
    "name": "Emily Gould",
    "phone": "07808836138",
    "postcode": "CT12PD"
  },
  {
    "name": "Paul Ainsworth",
    "phone": "07854161094",
    "postcode": "CT12PD"
  },
  {
    "name": "Vicky Granger",
    "phone": "07720325338",
    "postcode": "CT12PG"
  },
  {
    "name": "Jack",
    "phone": "07538107804",
    "postcode": "CT12PG"
  },
  {
    "name": "Maisoon Albaloushi",
    "phone": "07450027922",
    "postcode": "CT12PH"
  },
  {
    "name": "Fenna Martin",
    "phone": "07854741516",
    "postcode": "CT12PJ"
  },
  {
    "name": "0llie Banks",
    "phone": "07575927204",
    "postcode": "CT12PN"
  },
  {
    "name": "Selim Karakaya",
    "phone": "07900352314",
    "postcode": "CT12PY"
  },
  {
    "name": "Matt Wilson",
    "phone": "07969755334",
    "postcode": "CT12PY"
  },
  {
    "name": "Jade",
    "phone": "07595727026",
    "postcode": "CT12PY"
  },
  {
    "name": "martina nymark",
    "phone": "07821103635",
    "postcode": "CT12QF"
  },
  {
    "name": "Nathan Darran",
    "phone": "07402130937",
    "postcode": "CT12QN"
  },
  {
    "name": "Kay",
    "phone": "02086518681",
    "postcode": "CT12QN"
  },
  {
    "name": "Luke Morrissey",
    "phone": "07531515426",
    "postcode": "CT12QS"
  },
  {
    "name": "Lucas Kuemmerle-Perger",
    "phone": "07428169811",
    "postcode": "CT12QW"
  },
  {
    "name": "May Al Sahib",
    "phone": "07933734151",
    "postcode": "CT12QZ"
  },
  {
    "name": "May Al Sahib",
    "phone": "07761226956",
    "postcode": "CT12QZ"
  },
  {
    "name": "Rebecca Morrin,",
    "phone": "07710500156",
    "postcode": "CT12RB"
  },
  {
    "name": "Amelia Shannon Head",
    "phone": "07914534676",
    "postcode": "CT12RB"
  },
  {
    "name": "Kyran Gates",
    "phone": "07729910966",
    "postcode": "CT12RG"
  },
  {
    "name": "Eleanor Illingworth",
    "phone": "07908973969",
    "postcode": "CT12RG"
  },
  {
    "name": "Cameron",
    "phone": "07505008038",
    "postcode": "CT12RG"
  },
  {
    "name": "Catherine Peckham",
    "phone": "07914183539",
    "postcode": "CT12RQ"
  },
  {
    "name": "zamir",
    "phone": "07447945245",
    "postcode": "CT12RQ"
  },
  {
    "name": "Charly Harman",
    "phone": "07801226483",
    "postcode": "CT12RT"
  },
  {
    "name": "Ellie Williams",
    "phone": "07470171205",
    "postcode": "CT12RT"
  },
  {
    "name": "Vikram Singh",
    "phone": "07717311067",
    "postcode": "CT12RT"
  },
  {
    "name": "Jasmine Williamson-Persh",
    "phone": "07753427114",
    "postcode": "CT12RU"
  },
  {
    "name": "Munther Swar",
    "phone": "07491923997",
    "postcode": "CT12SW"
  },
  {
    "name": "Ben Wood",
    "phone": "07787763656",
    "postcode": "CT12SW"
  },
  {
    "name": "Adham Mohamedein",
    "phone": "07525 745605",
    "postcode": "CT12SW"
  },
  {
    "name": "Victoria Rycroft",
    "phone": "07584285541",
    "postcode": "CT12SW"
  },
  {
    "name": "Victoria Rycroft",
    "phone": "0784285541",
    "postcode": "CT12SW"
  },
  {
    "name": "Benedict Wye",
    "phone": "0755779222",
    "postcode": "CT12SX"
  },
  {
    "name": "Michael",
    "phone": "07535002246",
    "postcode": "CT12SX"
  },
  {
    "name": "Andrew Parramore",
    "phone": "07827156534",
    "postcode": "CT12SX"
  },
  {
    "name": "Geerthana Ratnam",
    "phone": "07482162520",
    "postcode": "CT12SX"
  },
  {
    "name": "Benjamin Robinson",
    "phone": "07593892972",
    "postcode": "CT12SX"
  },
  {
    "name": "Michael Taylor",
    "phone": "07882347472",
    "postcode": "CT12TN"
  },
  {
    "name": "Nancy",
    "phone": "07762546710",
    "postcode": "CT12YA"
  },
  {
    "name": "Jasmyne Sandhu",
    "phone": "07772792301",
    "postcode": "CT12YA"
  },
  {
    "name": "Joo Barber Van-Dnem",
    "phone": "07563741440",
    "postcode": "CT12YA"
  },
  {
    "name": "Achsuthan",
    "phone": "07575886288",
    "postcode": "CT12YA"
  },
  {
    "name": "Elsa Lewis",
    "phone": "07914013611",
    "postcode": "CT13AR"
  },
  {
    "name": "Timothy Manning",
    "phone": "07919 281616",
    "postcode": "CT13AR"
  },
  {
    "name": "Timothy Manning",
    "phone": "0 07919 281616",
    "postcode": "CT13AR"
  },
  {
    "name": "Timothy Manning",
    "phone": "0    07919 281616",
    "postcode": "CT13AR"
  },
  {
    "name": "david",
    "phone": "07717196189",
    "postcode": "CT13AS"
  },
  {
    "name": "Denise Edwards",
    "phone": "07773053443",
    "postcode": "CT13AT"
  },
  {
    "name": "Nicole Leng",
    "phone": "07522729050",
    "postcode": "CT13AU"
  },
  {
    "name": "Melissa",
    "phone": "07871853907",
    "postcode": "CT13AU"
  },
  {
    "name": "Doug",
    "phone": "07725025213",
    "postcode": "CT13AU"
  },
  {
    "name": "Elliot Borrell",
    "phone": "0+44 7462 874772",
    "postcode": "CT13AZ"
  },
  {
    "name": "Chantel Baker",
    "phone": "07843984343",
    "postcode": "CT13BF"
  },
  {
    "name": "Alexandra Hickman",
    "phone": "07473922956",
    "postcode": "CT13BF"
  },
  {
    "name": "Kenan Tezcan",
    "phone": "01227504951",
    "postcode": "CT13BL"
  },
  {
    "name": "Andrew Collyer",
    "phone": "07891006215",
    "postcode": "CT13BL"
  },
  {
    "name": "Emma",
    "phone": "07401913339",
    "postcode": "CT13BW"
  },
  {
    "name": "josh roberts",
    "phone": "07546858621",
    "postcode": "CT13BW"
  },
  {
    "name": "Emma",
    "phone": "07456787886",
    "postcode": "CT13DA"
  },
  {
    "name": "Ed",
    "phone": "07447929897",
    "postcode": "CT13DT"
  },
  {
    "name": "Fred Law",
    "phone": "07724256096",
    "postcode": "CT13DT"
  },
  {
    "name": "Antonietta Blau",
    "phone": "07780432727",
    "postcode": "CT13DT"
  },
  {
    "name": "Doris",
    "phone": "07421267291",
    "postcode": "CT13DT"
  },
  {
    "name": "Doris",
    "phone": "0 ",
    "postcode": "CT13DT"
  },
  {
    "name": "Graham Withers",
    "phone": "07867790157",
    "postcode": "CT13DX"
  },
  {
    "name": "Olivia Rose Monaghan",
    "phone": "07914957550",
    "postcode": "CT13DZ"
  },
  {
    "name": "lyn wood",
    "phone": "07427645267",
    "postcode": "CT13DZ"
  },
  {
    "name": "Michael",
    "phone": "07833088680",
    "postcode": "CT13EY"
  },
  {
    "name": "Mandy Luckhurst",
    "phone": "07747441932",
    "postcode": "CT13EY"
  },
  {
    "name": "Roddy Walsh",
    "phone": "07766797495",
    "postcode": "CT13EZ"
  },
  {
    "name": "Tedi Jorgji",
    "phone": "07435007574",
    "postcode": "CT13EZ"
  },
  {
    "name": "Emma",
    "phone": "07757757946",
    "postcode": "CT13EZ"
  },
  {
    "name": "Tedi Jorgji",
    "phone": "07435007571",
    "postcode": "CT13EZ"
  },
  {
    "name": "Roddy Walsh",
    "phone": "01227780973",
    "postcode": "CT13EZ"
  },
  {
    "name": "Giles Westgarth",
    "phone": "07506569259",
    "postcode": "CT13FF"
  },
  {
    "name": "Elliott Deacon",
    "phone": "07951017226",
    "postcode": "CT13FF"
  },
  {
    "name": "Gareth Cox",
    "phone": "07582572681",
    "postcode": "CT13FF"
  },
  {
    "name": "Ashley Popay",
    "phone": "07825999283",
    "postcode": "CT13FF"
  },
  {
    "name": "Paula",
    "phone": "07880208739",
    "postcode": "CT13FF"
  },
  {
    "name": "Lamis",
    "phone": "07533111332",
    "postcode": "CT13HA"
  },
  {
    "name": "tania",
    "phone": "07896544427",
    "postcode": "CT13HB"
  },
  {
    "name": "Alice Gadd",
    "phone": "07747053590",
    "postcode": "CT13HD"
  },
  {
    "name": "David",
    "phone": "07585806729",
    "postcode": "CT13HE"
  },
  {
    "name": "Adam",
    "phone": "07776233843",
    "postcode": "CT13HG"
  },
  {
    "name": "Eleanor Seabrook",
    "phone": "07470423547",
    "postcode": "CT13HG"
  },
  {
    "name": "Andrew Till",
    "phone": "07748960017",
    "postcode": "CT13HJ"
  },
  {
    "name": "Heather Stracey",
    "phone": "07854269164",
    "postcode": "CT13HQ"
  },
  {
    "name": "howard rowles",
    "phone": "07886674545",
    "postcode": "CT13HQ"
  },
  {
    "name": "Sharky Austin-Coskry",
    "phone": "07876142792",
    "postcode": "CT13HW"
  },
  {
    "name": "Rob Silsbury",
    "phone": "07771923953",
    "postcode": "CT13HY"
  },
  {
    "name": "sarah sisbury",
    "phone": "07971819921",
    "postcode": "CT13HY"
  },
  {
    "name": "Osman Idris",
    "phone": "07951560125",
    "postcode": "CT13HY"
  },
  {
    "name": "Joe Eagle",
    "phone": "01227765417",
    "postcode": "CT13JN"
  },
  {
    "name": "Mr Adam Coleman",
    "phone": "01227904408",
    "postcode": "CT13JN"
  },
  {
    "name": "lara",
    "phone": "07725673157",
    "postcode": "CT13JN"
  },
  {
    "name": "Harriet Burrowes",
    "phone": "07954636082",
    "postcode": "CT13JP"
  },
  {
    "name": "Naomi Mann",
    "phone": "07481897439",
    "postcode": "CT13JP"
  },
  {
    "name": "Iloia Hofer",
    "phone": "07517147598",
    "postcode": "CT13JP"
  },
  {
    "name": "Sarah",
    "phone": "07508125452",
    "postcode": "CT13JP"
  },
  {
    "name": "Breeze Smithers",
    "phone": "07796242465",
    "postcode": "CT13JP"
  },
  {
    "name": "Phillipa Taylor",
    "phone": "07789551899",
    "postcode": "CT13JS"
  },
  {
    "name": "Anna Green",
    "phone": "07841114588",
    "postcode": "CT13JS"
  },
  {
    "name": "Maggie Wyatt",
    "phone": "07984176530",
    "postcode": "CT13JU"
  },
  {
    "name": "Vikki",
    "phone": "07919564054",
    "postcode": "CT13JY"
  },
  {
    "name": "Timothy robinson",
    "phone": "07761001357",
    "postcode": "CT13JY"
  },
  {
    "name": "Keith Larkin",
    "phone": "07779 429601",
    "postcode": "CT13JY"
  },
  {
    "name": "Keith Larkin",
    "phone": "0  07779 429601",
    "postcode": "CT13JY"
  },
  {
    "name": "Sanjit",
    "phone": "07943969119",
    "postcode": "CT13LA"
  },
  {
    "name": "richard kellard",
    "phone": "07548050266",
    "postcode": "CT13LB"
  },
  {
    "name": "huthman",
    "phone": "07821701231",
    "postcode": "CT13LJ"
  },
  {
    "name": "Lainy",
    "phone": "07815600069",
    "postcode": "CT13LP"
  },
  {
    "name": "Debbie Moore",
    "phone": "07763151375",
    "postcode": "CT13LP"
  },
  {
    "name": "Katie Matthews",
    "phone": "07983635644",
    "postcode": "CT13LP"
  },
  {
    "name": "Mary Harrison",
    "phone": "01227470677",
    "postcode": "CT13LP"
  },
  {
    "name": "Kyle Floyd",
    "phone": "07540181448",
    "postcode": "CT13LP"
  },
  {
    "name": "beth",
    "phone": "07891463790",
    "postcode": "CT13LP"
  },
  {
    "name": "Lucy Andrews",
    "phone": "07511569191",
    "postcode": "CT13LX"
  },
  {
    "name": "Adrian",
    "phone": "07814403245",
    "postcode": "CT13NB"
  },
  {
    "name": "Sally",
    "phone": "01227478679",
    "postcode": "CT13ND"
  },
  {
    "name": "Tom Hulme",
    "phone": "07884034955",
    "postcode": "CT13NE"
  },
  {
    "name": "Lee",
    "phone": "07766221337",
    "postcode": "CT13NJ"
  },
  {
    "name": "amit dalip",
    "phone": "07510855467",
    "postcode": "CT13NQ"
  },
  {
    "name": "Robert Perry",
    "phone": "07835252002",
    "postcode": "CT13NQ"
  },
  {
    "name": "Zoe",
    "phone": "07751702984",
    "postcode": "CT13NS"
  },
  {
    "name": "Sharon Crumb",
    "phone": "07834235288",
    "postcode": "CT13NS"
  },
  {
    "name": "Nicola pyke",
    "phone": "07788299381",
    "postcode": "CT13NX"
  },
  {
    "name": "Dan Ford",
    "phone": "07894510204",
    "postcode": "CT13PD"
  },
  {
    "name": "Andrew Smith",
    "phone": "07532207366",
    "postcode": "CT13PD"
  },
  {
    "name": "Becky Allen",
    "phone": "07508520392",
    "postcode": "CT13PG"
  },
  {
    "name": "Jennifer Haswell",
    "phone": "07835358257",
    "postcode": "CT13PL"
  },
  {
    "name": "Robert Thomas",
    "phone": "07767634635",
    "postcode": "CT13PL"
  },
  {
    "name": "Ankit Patel",
    "phone": "0746036551",
    "postcode": "CT13PP"
  },
  {
    "name": "Kate",
    "phone": "07969268791",
    "postcode": "CT13PR"
  },
  {
    "name": "Jake Ford",
    "phone": "07834778803",
    "postcode": "CT13PT"
  },
  {
    "name": "Jaime Jackson",
    "phone": "07795835758",
    "postcode": "CT13PT"
  },
  {
    "name": "Jaime Jackson",
    "phone": "0  07795 835758",
    "postcode": "CT13PT"
  },
  {
    "name": "Ross McCarthy",
    "phone": "07731556335",
    "postcode": "CT13PU"
  },
  {
    "name": "Bradley Lobo",
    "phone": "07597452763",
    "postcode": "CT13PU"
  },
  {
    "name": "Bex Fellows",
    "phone": "07549041098",
    "postcode": "CT13PW"
  },
  {
    "name": "James Crawley",
    "phone": "07964424898",
    "postcode": "CT13PW"
  },
  {
    "name": "Rachael Blackamore",
    "phone": "07711279778",
    "postcode": "CT13PX"
  },
  {
    "name": "Jack",
    "phone": "07581011289",
    "postcode": "CT13PY"
  },
  {
    "name": "Hudd",
    "phone": "07802202752",
    "postcode": "CT13PY"
  },
  {
    "name": "Endre Papp",
    "phone": "07564897077",
    "postcode": "CT13PZ"
  },
  {
    "name": "Stephanie Hutchinson",
    "phone": "07837817292",
    "postcode": "CT13QB"
  },
  {
    "name": "Miss S D henderson",
    "phone": "07487731478",
    "postcode": "CT13QB"
  },
  {
    "name": "Naomi Hayward",
    "phone": "01227454581",
    "postcode": "CT13QB"
  },
  {
    "name": "James Sutton",
    "phone": "07595822827",
    "postcode": "CT13QD"
  },
  {
    "name": "Torron Iveson",
    "phone": "07854382350",
    "postcode": "CT13QE"
  },
  {
    "name": "Maria Redwood",
    "phone": "07725793571",
    "postcode": "CT13QE"
  },
  {
    "name": "Joshua Parsons",
    "phone": "07786155339",
    "postcode": "CT13QE"
  },
  {
    "name": "Laurel Wood",
    "phone": "07864093602",
    "postcode": "CT13QF"
  },
  {
    "name": "Ashley Marchington",
    "phone": "07714856807",
    "postcode": "CT13QF"
  },
  {
    "name": "Anna Meekums",
    "phone": "07793537391",
    "postcode": "CT13QF"
  },
  {
    "name": "Mark Foster",
    "phone": "07539610330",
    "postcode": "CT13QF"
  },
  {
    "name": "Debbie Cook",
    "phone": "07731518338",
    "postcode": "CT13QG"
  },
  {
    "name": "Debbie Cook",
    "phone": "07781518338",
    "postcode": "CT13QG"
  },
  {
    "name": "Jo",
    "phone": "07713019381",
    "postcode": "CT13QG"
  },
  {
    "name": "Chris Blyth",
    "phone": "07981888363",
    "postcode": "CT13QH"
  },
  {
    "name": "Peter Austin",
    "phone": "01227453809",
    "postcode": "CT13QJ"
  },
  {
    "name": "Andrea Vargova",
    "phone": "07818638574",
    "postcode": "CT13QL"
  },
  {
    "name": "Hassani Francis",
    "phone": "07818117507",
    "postcode": "CT13QL"
  },
  {
    "name": "Oscar Lester",
    "phone": "07712189225",
    "postcode": "CT13QL"
  },
  {
    "name": "Brad Hilton",
    "phone": "07429067939",
    "postcode": "CT13QN"
  },
  {
    "name": "Michael Smith",
    "phone": "07964581237",
    "postcode": "CT13QP"
  },
  {
    "name": "Luke Hedges",
    "phone": "07497629740",
    "postcode": "CT13QP"
  },
  {
    "name": "Izzy Galbraith",
    "phone": "07711043529",
    "postcode": "CT13QP"
  },
  {
    "name": "Christian Cottam",
    "phone": "07956292895",
    "postcode": "CT13QP"
  },
  {
    "name": "Sarah Bowles",
    "phone": "07564880220",
    "postcode": "CT13QR"
  },
  {
    "name": "Anthony Griffiths",
    "phone": "07880355594",
    "postcode": "CT13QS"
  },
  {
    "name": "carly sharpe",
    "phone": "07563781458",
    "postcode": "CT13QS"
  },
  {
    "name": "Vinay Joshi",
    "phone": "07894883158",
    "postcode": "CT13QY"
  },
  {
    "name": "robert waterson",
    "phone": "07801523438",
    "postcode": "CT13RG"
  },
  {
    "name": "Mark Burford",
    "phone": "07845525679",
    "postcode": "CT13RL"
  },
  {
    "name": "Sherif",
    "phone": "07592214127",
    "postcode": "CT13RL"
  },
  {
    "name": "Kameshwari Shastri",
    "phone": "07732291951",
    "postcode": "CT13RN"
  },
  {
    "name": "Deniz",
    "phone": "07954378405",
    "postcode": "CT13RN"
  },
  {
    "name": "Beth Masters",
    "phone": "07495651321",
    "postcode": "CT13RS"
  },
  {
    "name": "Varad Godse",
    "phone": "07442256699",
    "postcode": "CT13RS"
  },
  {
    "name": "Malcolm McCormick",
    "phone": "07871686174",
    "postcode": "CT13RS"
  },
  {
    "name": "Malcolm McCormick",
    "phone": "07467590446",
    "postcode": "CT13RS"
  },
  {
    "name": "Wiktoria Krzoska",
    "phone": "07907875707",
    "postcode": "CT13RS"
  },
  {
    "name": "Emily Newell",
    "phone": "07702585849",
    "postcode": "CT13RX"
  },
  {
    "name": "Abbie",
    "phone": "07947963975",
    "postcode": "CT13RX"
  },
  {
    "name": "Jack Beale",
    "phone": "0793948626",
    "postcode": "CT13RY"
  },
  {
    "name": "Ruth Howland",
    "phone": "01227459478",
    "postcode": "CT13SD"
  },
  {
    "name": "Craig",
    "phone": "07964967602",
    "postcode": "CT13SE"
  },
  {
    "name": "Mr Ricky Hougham",
    "phone": "07870498311",
    "postcode": "CT13SE"
  },
  {
    "name": "Sian West",
    "phone": "07507651175",
    "postcode": "CT13SE"
  },
  {
    "name": "Jemima",
    "phone": "07464961387",
    "postcode": "CT13SF"
  },
  {
    "name": "Brendan Powney",
    "phone": "07946777518",
    "postcode": "CT13SF"
  },
  {
    "name": "Emma",
    "phone": "07710636828",
    "postcode": "CT13SQ"
  },
  {
    "name": "Ami Dosanjh",
    "phone": "07789642603",
    "postcode": "CT13SR"
  },
  {
    "name": "Hannah",
    "phone": "07764749779",
    "postcode": "CT13ST"
  },
  {
    "name": "Matthew Wragg",
    "phone": "07730464520",
    "postcode": "CT13SU"
  },
  {
    "name": "Thivigar",
    "phone": "07879912703",
    "postcode": "CT13SY"
  },
  {
    "name": "Tommaso",
    "phone": "07776919809",
    "postcode": "CT13SY"
  },
  {
    "name": "James Thompson",
    "phone": "07712266622",
    "postcode": "CT13TB"
  },
  {
    "name": "James Thompson",
    "phone": "07712263622",
    "postcode": "CT13TB"
  },
  {
    "name": "Jamie",
    "phone": "07718491109",
    "postcode": "CT13TF"
  },
  {
    "name": "Woodcock",
    "phone": "07793032751",
    "postcode": "CT13TF"
  },
  {
    "name": "James Reynolds",
    "phone": "07714707908",
    "postcode": "CT13TH"
  },
  {
    "name": "ian",
    "phone": "07896706796",
    "postcode": "CT13TP"
  },
  {
    "name": "Leeanne",
    "phone": "07596463228",
    "postcode": "CT13TR"
  },
  {
    "name": "Gemma Harris",
    "phone": "01227636625",
    "postcode": "CT13TS"
  },
  {
    "name": "Gemma Harris",
    "phone": "01227636629",
    "postcode": "CT13TS"
  },
  {
    "name": "Owen",
    "phone": "07522293160",
    "postcode": "CT13TY"
  },
  {
    "name": "Alex Haldane",
    "phone": "07712175491",
    "postcode": "CT13UA"
  },
  {
    "name": "Helen Nash",
    "phone": "07725044732",
    "postcode": "CT13UB"
  },
  {
    "name": "mr lewis-law",
    "phone": "07936504846",
    "postcode": "CT13UB"
  },
  {
    "name": "Connor Puhalo",
    "phone": "07860849415",
    "postcode": "CT13UD"
  },
  {
    "name": "Conor Puhalo",
    "phone": "07860849485",
    "postcode": "CT13UD"
  },
  {
    "name": "Chelsea Campbell",
    "phone": "07746911187",
    "postcode": "CT13UF"
  },
  {
    "name": "Natasha",
    "phone": "07954753105",
    "postcode": "CT13UL"
  },
  {
    "name": "jamie",
    "phone": "07791667418",
    "postcode": "CT13UL"
  },
  {
    "name": "jamie",
    "phone": "07725018748",
    "postcode": "CT13UL"
  },
  {
    "name": "Lizzie",
    "phone": "07523837348",
    "postcode": "CT13UP"
  },
  {
    "name": "Kevin Wiltshire",
    "phone": "07740403889",
    "postcode": "CT13UR"
  },
  {
    "name": "Paul Lyttle",
    "phone": "07920401966",
    "postcode": "CT13XR"
  },
  {
    "name": "Benjamin Dudiak-Fry",
    "phone": "07772250644",
    "postcode": "CT13XT"
  },
  {
    "name": "Paul Fry",
    "phone": "01227464304",
    "postcode": "CT13XT"
  },
  {
    "name": "Dawn",
    "phone": "07814923715",
    "postcode": "CT13XU"
  },
  {
    "name": "Martyn Weaver",
    "phone": "07968173485",
    "postcode": "CT13XW"
  },
  {
    "name": "Christopher",
    "phone": "07891958190",
    "postcode": "CT13YA"
  },
  {
    "name": "Emma Pritchard",
    "phone": "01227457905",
    "postcode": "CT27AF"
  },
  {
    "name": "Reece Evans",
    "phone": "07591559313",
    "postcode": "CT27AY"
  },
  {
    "name": "Aishwarya Rajavelu",
    "phone": "07577904936",
    "postcode": "CT27AY"
  },
  {
    "name": "Danielle",
    "phone": "07393283273",
    "postcode": "CT27AY"
  },
  {
    "name": "Reece Evans",
    "phone": "07591559343",
    "postcode": "CT27AY"
  },
  {
    "name": "JJ Gallagher",
    "phone": "07415498875",
    "postcode": "CT27AY"
  },
  {
    "name": "Leon Watson",
    "phone": "07496363273",
    "postcode": "CT27AY"
  },
  {
    "name": "Katie McCraith",
    "phone": "07703722295",
    "postcode": "CT27AY"
  },
  {
    "name": "Alexander Grimwood",
    "phone": "07576680980",
    "postcode": "CT27AY"
  },
  {
    "name": "James Wallis",
    "phone": "07867472239",
    "postcode": "CT27AY"
  },
  {
    "name": "Anita Jina",
    "phone": "07749206833",
    "postcode": "CT27AY"
  },
  {
    "name": "Nadim Salyem",
    "phone": "07769845619",
    "postcode": "CT27AY"
  },
  {
    "name": "Shannon",
    "phone": "07419586947",
    "postcode": "CT27BA"
  },
  {
    "name": "Hannah Cusden",
    "phone": "07871056586",
    "postcode": "CT27BA"
  },
  {
    "name": "Mark Cusden",
    "phone": "07915438279",
    "postcode": "CT27BA"
  },
  {
    "name": "Christopher Spear",
    "phone": "07496384036",
    "postcode": "CT27BJ"
  },
  {
    "name": "Emma McAlpine",
    "phone": "07828087328",
    "postcode": "CT27BJ"
  },
  {
    "name": "Ammar Naqvi",
    "phone": "07833469598",
    "postcode": "CT27BL"
  },
  {
    "name": "Jaishelbi Johnston",
    "phone": "07549885316",
    "postcode": "CT27BL"
  },
  {
    "name": "Tabitha smith",
    "phone": "07895135653",
    "postcode": "CT27BL"
  },
  {
    "name": "Tabitha smith",
    "phone": "07957191159",
    "postcode": "CT27BL"
  },
  {
    "name": "Lewis Alford",
    "phone": "07883628525",
    "postcode": "CT27BL"
  },
  {
    "name": "Ryan Alexander",
    "phone": "07595894399",
    "postcode": "CT27BN"
  },
  {
    "name": "Vivian Kehinde",
    "phone": "07437176632",
    "postcode": "CT27BS"
  },
  {
    "name": "Rodrigo Kita",
    "phone": "07928530564",
    "postcode": "CT27BS"
  },
  {
    "name": "Priyanka Prabhakaran",
    "phone": "07702281879",
    "postcode": "CT27BS"
  },
  {
    "name": "Aimee Roberts",
    "phone": "07447914419",
    "postcode": "CT27BS"
  },
  {
    "name": "Jack",
    "phone": "07503192710",
    "postcode": "CT27BS"
  },
  {
    "name": "Joseph Carey",
    "phone": "07703728212",
    "postcode": "CT27BS"
  },
  {
    "name": "Rhiannon Harvey",
    "phone": "07854402890",
    "postcode": "CT27BS"
  },
  {
    "name": "Konrad Burr",
    "phone": "07478099097",
    "postcode": "CT27BT"
  },
  {
    "name": "Lauren Johnson",
    "phone": "07858784736",
    "postcode": "CT27BT"
  },
  {
    "name": "Chris Gomes",
    "phone": "07593628340",
    "postcode": "CT27BU"
  },
  {
    "name": "Euan McGinness",
    "phone": "07482244516",
    "postcode": "CT27BU"
  },
  {
    "name": "Will Shillibier",
    "phone": "07587182905",
    "postcode": "CT27BU"
  },
  {
    "name": "Charles Coppins",
    "phone": "07772435759",
    "postcode": "CT27BW"
  },
  {
    "name": "Sam Benefield",
    "phone": "07799607810",
    "postcode": "CT27BW"
  },
  {
    "name": "Vise Demonicus",
    "phone": "07448210916",
    "postcode": "CT27BY"
  },
  {
    "name": "Charles",
    "phone": "07521034554",
    "postcode": "CT27BY"
  },
  {
    "name": "Ikram Mohamed",
    "phone": "07986742211",
    "postcode": "CT27DA"
  },
  {
    "name": "Sasha Langeveldt",
    "phone": "07715821835",
    "postcode": "CT27DA"
  },
  {
    "name": "Louisa Taylor",
    "phone": "0785872166",
    "postcode": "CT27DB"
  },
  {
    "name": "Louisa Taylor",
    "phone": "07375435178",
    "postcode": "CT27DB"
  },
  {
    "name": "Louisa Taylor",
    "phone": "07858721660",
    "postcode": "CT27DB"
  },
  {
    "name": "Amy Morgan",
    "phone": "07732682948",
    "postcode": "CT27DB"
  },
  {
    "name": "Simon chapple",
    "phone": "07877699268",
    "postcode": "CT27DE"
  },
  {
    "name": "Kyannah Charles",
    "phone": "07463785638",
    "postcode": "CT27DH"
  },
  {
    "name": "Josephine Webb",
    "phone": "07875178583",
    "postcode": "CT27DJ"
  },
  {
    "name": "Yoke Baeyene",
    "phone": "07516171574",
    "postcode": "CT27DJ"
  },
  {
    "name": "Sreehar Kumar",
    "phone": "07960865210",
    "postcode": "CT27DJ"
  },
  {
    "name": "Andrew Law",
    "phone": "07816508893",
    "postcode": "CT27DQ"
  },
  {
    "name": "Jessica",
    "phone": "07563399107",
    "postcode": "CT27DS"
  },
  {
    "name": "Jess Wilcox",
    "phone": "07803489796",
    "postcode": "CT27DS"
  },
  {
    "name": "Aj",
    "phone": "07449988274",
    "postcode": "CT27DW"
  },
  {
    "name": "Ellie Crawley",
    "phone": "07446105546",
    "postcode": "CT27DZ"
  },
  {
    "name": "Dave Lowe",
    "phone": "07709488762",
    "postcode": "CT27EE"
  },
  {
    "name": "Farhana Uddih",
    "phone": "07943864658",
    "postcode": "CT27EH"
  },
  {
    "name": "Olav Johan Gran Nordheim",
    "phone": "07429008573",
    "postcode": "CT27EN"
  },
  {
    "name": "Sam Amos",
    "phone": "07854757235",
    "postcode": "CT27EQ"
  },
  {
    "name": "Josephine Tu",
    "phone": "07508656924",
    "postcode": "CT27EQ"
  },
  {
    "name": "Stacey Bunyan",
    "phone": "07497761114",
    "postcode": "CT27EQ"
  },
  {
    "name": "Jamie Harris",
    "phone": "07527349899",
    "postcode": "CT27FD"
  },
  {
    "name": "Rory McKeown",
    "phone": "07944162277",
    "postcode": "CT27FH"
  },
  {
    "name": "Phillip Edward",
    "phone": "07947744496",
    "postcode": "CT27FH"
  },
  {
    "name": "Sebastian Sorce",
    "phone": "07377664343",
    "postcode": "CT27FH"
  },
  {
    "name": "Prahav",
    "phone": "07763053603",
    "postcode": "CT27FH"
  },
  {
    "name": "Samuel Tesfay",
    "phone": "07507627127",
    "postcode": "CT27FH"
  },
  {
    "name": "rosie",
    "phone": "07590766106",
    "postcode": "CT27FH"
  },
  {
    "name": "Toby Watts",
    "phone": "07979182058",
    "postcode": "CT27FH"
  },
  {
    "name": "Insiaa",
    "phone": "07541084190",
    "postcode": "CT27FH"
  },
  {
    "name": "sam tes",
    "phone": "07490212534",
    "postcode": "CT27FH"
  },
  {
    "name": "Jim Jokinen",
    "phone": "07575925917",
    "postcode": "CT27FH"
  },
  {
    "name": "Rahat Rahman",
    "phone": "07446360018",
    "postcode": "CT27FN"
  },
  {
    "name": "Jake",
    "phone": "07756419684",
    "postcode": "CT27FN"
  },
  {
    "name": "Josh Walter",
    "phone": "07554171677",
    "postcode": "CT27FN"
  },
  {
    "name": "George Brewster",
    "phone": "07548919291",
    "postcode": "CT27FN"
  },
  {
    "name": "Emily",
    "phone": "07531411500",
    "postcode": "CT27FN"
  },
  {
    "name": "Nicole Robson",
    "phone": "07368230020",
    "postcode": "CT27FN"
  },
  {
    "name": "Vicky",
    "phone": "07946716539",
    "postcode": "CT27FN"
  },
  {
    "name": "Danita Fernandes",
    "phone": "07810138003",
    "postcode": "CT27FN"
  },
  {
    "name": "Jordan Garland",
    "phone": "07508875842",
    "postcode": "CT27FN"
  },
  {
    "name": "Nathan Bearley",
    "phone": "07950471571",
    "postcode": "CT27FN"
  },
  {
    "name": "Nicholas Slade-Joseph",
    "phone": "07880257530",
    "postcode": "CT27FN"
  },
  {
    "name": "Azra",
    "phone": "07858943566",
    "postcode": "CT27FN"
  },
  {
    "name": "James",
    "phone": "07786432849",
    "postcode": "CT27FN"
  },
  {
    "name": "Danielle Callister",
    "phone": "07854787213",
    "postcode": "CT27FN"
  },
  {
    "name": "Charlie West",
    "phone": "07504759038",
    "postcode": "CT27FN"
  },
  {
    "name": "Rhianne",
    "phone": "07720260772",
    "postcode": "CT27FN"
  },
  {
    "name": "Hannah Irwin",
    "phone": "02084273496",
    "postcode": "CT27FN"
  },
  {
    "name": "Saleha Ahmed",
    "phone": "07780 006887",
    "postcode": "CT27FN"
  },
  {
    "name": "Charlie West",
    "phone": "07860475725",
    "postcode": "CT27FN"
  },
  {
    "name": "Mohamed",
    "phone": "07852428022",
    "postcode": "CT27FN"
  },
  {
    "name": "Danah",
    "phone": "07402290181",
    "postcode": "CT27FN"
  },
  {
    "name": "Anaitra Al busaidi",
    "phone": "0447576917965",
    "postcode": "CT27FN"
  },
  {
    "name": "Adham Mohamedein",
    "phone": "0  07525 745605",
    "postcode": "CT27FN"
  },
  {
    "name": "Hari Sivapalan",
    "phone": "07931092560",
    "postcode": "CT27FN"
  },
  {
    "name": "Haidar Hamder",
    "phone": "0 07795 995618",
    "postcode": "CT27FN"
  },
  {
    "name": "Saleha Ahmed",
    "phone": "0 07780 006887",
    "postcode": "CT27FN"
  },
  {
    "name": "Adham Mohamedein",
    "phone": "0   07525 745605",
    "postcode": "CT27FN"
  },
  {
    "name": "Vaughan",
    "phone": "07528682463",
    "postcode": "CT27FN"
  },
  {
    "name": "Toby Smith",
    "phone": "07557642100",
    "postcode": "CT27HA"
  },
  {
    "name": "Kristina",
    "phone": "07549256852",
    "postcode": "CT27HA"
  },
  {
    "name": "Joy",
    "phone": "07555018157",
    "postcode": "CT27HA"
  },
  {
    "name": "Jay",
    "phone": "07543400633",
    "postcode": "CT27HD"
  },
  {
    "name": "Luisa Pereira Pires",
    "phone": "0447885655859",
    "postcode": "CT27HF"
  },
  {
    "name": "Mark newington",
    "phone": "012273798296",
    "postcode": "CT27HF"
  },
  {
    "name": "Rhian Newton-Berns",
    "phone": "07538560560",
    "postcode": "CT27HF"
  },
  {
    "name": "Mary Harries",
    "phone": "07460815693",
    "postcode": "CT27HF"
  },
  {
    "name": "Lisa Reaney",
    "phone": "07514480195",
    "postcode": "CT27HF"
  },
  {
    "name": "Rhian Newton-Berns",
    "phone": "07572541212",
    "postcode": "CT27HF"
  },
  {
    "name": "Natalie Cottrell",
    "phone": "07783905016",
    "postcode": "CT27HG"
  },
  {
    "name": "Emma Day",
    "phone": "07507191610",
    "postcode": "CT27HG"
  },
  {
    "name": "Alasdair Hemus",
    "phone": "07518010128",
    "postcode": "CT27HG"
  },
  {
    "name": "Kate Fahy",
    "phone": "07722734546",
    "postcode": "CT27HG"
  },
  {
    "name": "Mike barham",
    "phone": "07411973628",
    "postcode": "CT27HG"
  },
  {
    "name": "Sarah Furey",
    "phone": "07341848557",
    "postcode": "CT27HG"
  },
  {
    "name": "Claire Polo",
    "phone": "07547816798",
    "postcode": "CT27HG"
  },
  {
    "name": "Sam",
    "phone": "07939375609",
    "postcode": "CT27HH"
  },
  {
    "name": "GianPaolo Ferdenzi",
    "phone": "07808888050",
    "postcode": "CT27HH"
  },
  {
    "name": "Kerry Tinker",
    "phone": "07447123950",
    "postcode": "CT27HJ"
  },
  {
    "name": "Paige",
    "phone": "07873460062",
    "postcode": "CT27HL"
  },
  {
    "name": "Jordan Cook",
    "phone": "07597897736",
    "postcode": "CT27HL"
  },
  {
    "name": "Sarah",
    "phone": "07592845116",
    "postcode": "CT27HQ"
  },
  {
    "name": "Darren Butland",
    "phone": "07850153971",
    "postcode": "CT27HQ"
  },
  {
    "name": "George Willson",
    "phone": "07939901860",
    "postcode": "CT27HQ"
  },
  {
    "name": "Kane Roberts",
    "phone": "07443585778",
    "postcode": "CT27HQ"
  },
  {
    "name": "Emily Pillow",
    "phone": "07768746060",
    "postcode": "CT27HQ"
  },
  {
    "name": "Karan Asher",
    "phone": "07952736307",
    "postcode": "CT27HR"
  },
  {
    "name": "Daniel Price",
    "phone": "07371297716",
    "postcode": "CT27HR"
  },
  {
    "name": "Siddharth Sarker",
    "phone": "07848283925",
    "postcode": "CT27HR"
  },
  {
    "name": "Sam",
    "phone": "07500919473",
    "postcode": "CT27HR"
  },
  {
    "name": "Daniela Gonzalez",
    "phone": "07887427341",
    "postcode": "CT27HR"
  },
  {
    "name": "Clare Ford",
    "phone": "07918148503",
    "postcode": "CT27HR"
  },
  {
    "name": "Lucy",
    "phone": "07710488852",
    "postcode": "CT27HR"
  },
  {
    "name": "Sinead Rowe",
    "phone": "07415365974",
    "postcode": "CT27HR"
  },
  {
    "name": "James Manson",
    "phone": "07534916323",
    "postcode": "CT27HT"
  },
  {
    "name": "Matthew Fillery",
    "phone": "07952886533",
    "postcode": "CT27HU"
  },
  {
    "name": "Olivia Vincent-Frankland",
    "phone": "07799550061",
    "postcode": "CT27HY"
  },
  {
    "name": "Steeve Dunkel",
    "phone": "07934583081",
    "postcode": "CT27HY"
  },
  {
    "name": "Bradley Herat",
    "phone": "07729116232",
    "postcode": "CT27HZ"
  },
  {
    "name": "Rachel Hewitt",
    "phone": "07918389142",
    "postcode": "CT27HZ"
  },
  {
    "name": "Bradley Herat",
    "phone": "07729116282",
    "postcode": "CT27HZ"
  },
  {
    "name": "Nicola Ady",
    "phone": "07794945739",
    "postcode": "CT27JB"
  },
  {
    "name": "Deen Hatteea",
    "phone": "07495065907",
    "postcode": "CT27JG"
  },
  {
    "name": "Michelle Godden",
    "phone": "07712443452",
    "postcode": "CT27JH"
  },
  {
    "name": "claire",
    "phone": "01227636883",
    "postcode": "CT27JH"
  },
  {
    "name": "Diksha Bhujun",
    "phone": "07888652424",
    "postcode": "CT27JP"
  },
  {
    "name": "Safiya",
    "phone": "07446525065",
    "postcode": "CT27JQ"
  },
  {
    "name": "Adam",
    "phone": "07753312356",
    "postcode": "CT27JQ"
  },
  {
    "name": "Jessica Woods",
    "phone": "07557996174",
    "postcode": "CT27JQ"
  },
  {
    "name": "eric wright",
    "phone": "07894762328",
    "postcode": "CT27JQ"
  },
  {
    "name": "Katie pye",
    "phone": "07780602830",
    "postcode": "CT27JY"
  },
  {
    "name": "Yahya Muhammed",
    "phone": "07861766152",
    "postcode": "CT27LA"
  },
  {
    "name": "Natalie Tipping",
    "phone": "07935113119",
    "postcode": "CT27LE"
  },
  {
    "name": "Noor",
    "phone": "07513428275",
    "postcode": "CT27LE"
  },
  {
    "name": "Ruby Lyle",
    "phone": "07766316491",
    "postcode": "CT27LE"
  },
  {
    "name": "Saskia Nieve McKenna",
    "phone": "07907572569",
    "postcode": "CT27LF"
  },
  {
    "name": "Joseph Mulvihill",
    "phone": "07796935231",
    "postcode": "CT27LF"
  },
  {
    "name": "Laura Williams Wright",
    "phone": "07523945411",
    "postcode": "CT27LF"
  },
  {
    "name": "Nunciata Ojie",
    "phone": "07946156523",
    "postcode": "CT27LF"
  },
  {
    "name": "Eleni",
    "phone": "07894919846",
    "postcode": "CT27LG"
  },
  {
    "name": "Eleni",
    "phone": "07894919864",
    "postcode": "CT27LG"
  },
  {
    "name": "Eleni",
    "phone": "07394919846",
    "postcode": "CT27LG"
  },
  {
    "name": "Haydn",
    "phone": "07871603679",
    "postcode": "CT27LG"
  },
  {
    "name": "Joy",
    "phone": "07469933364",
    "postcode": "CT27LG"
  },
  {
    "name": "Naomi Nolte",
    "phone": "07787869892",
    "postcode": "CT27LH"
  },
  {
    "name": "Kat Rainbird",
    "phone": "07704970085",
    "postcode": "CT27LN"
  },
  {
    "name": "Richard Snook",
    "phone": "07895900415",
    "postcode": "CT27LN"
  },
  {
    "name": "kate",
    "phone": "07462865980",
    "postcode": "CT27LN"
  },
  {
    "name": "kassia wyhowska",
    "phone": "07895044642",
    "postcode": "CT27LN"
  },
  {
    "name": "Katherine Hall",
    "phone": "07901860710",
    "postcode": "CT27LR"
  },
  {
    "name": "Candace Lockley",
    "phone": "07447015547",
    "postcode": "CT27LS"
  },
  {
    "name": "Andrew Foster",
    "phone": "07841091462",
    "postcode": "CT27LS"
  },
  {
    "name": "shane newton",
    "phone": "07947609636",
    "postcode": "CT27LS"
  },
  {
    "name": "noah",
    "phone": "07478963391",
    "postcode": "CT27NA"
  },
  {
    "name": "kerry smith",
    "phone": "07734461981",
    "postcode": "CT27PL"
  },
  {
    "name": "Tara Griffin",
    "phone": "07577951732",
    "postcode": "CT27PN"
  },
  {
    "name": "Ollie Budd",
    "phone": "07506255533",
    "postcode": "CT27PP"
  },
  {
    "name": "Kevin Fraser",
    "phone": "07429313094",
    "postcode": "CT27PR"
  },
  {
    "name": "Neil Dyer",
    "phone": "07737372171",
    "postcode": "CT27PR"
  },
  {
    "name": "Charley",
    "phone": "07940359153",
    "postcode": "CT27PS"
  },
  {
    "name": "Heidi Ruebling",
    "phone": "01227452835",
    "postcode": "CT27PT"
  },
  {
    "name": "Mike Jaanus",
    "phone": "07973432297",
    "postcode": "CT27QP"
  },
  {
    "name": "Emma Cheek",
    "phone": "07760999571",
    "postcode": "CT27QS"
  },
  {
    "name": "Emma Cheek",
    "phone": "077602999571",
    "postcode": "CT27QS"
  },
  {
    "name": "Isabel Rose",
    "phone": "07387078553",
    "postcode": "CT27QT"
  },
  {
    "name": "Daniel Mannings",
    "phone": "07732314997",
    "postcode": "CT27QW"
  },
  {
    "name": "Jennie Ullah",
    "phone": "07872327510",
    "postcode": "CT27QW"
  },
  {
    "name": "Aysha Iqbal",
    "phone": "07783932775",
    "postcode": "CT27QX"
  },
  {
    "name": "Aimee George",
    "phone": "07984412349",
    "postcode": "CT27QX"
  },
  {
    "name": "Emelie Odukwe",
    "phone": "07495537742",
    "postcode": "CT27QY"
  },
  {
    "name": "Lauren Hill",
    "phone": "07557235142",
    "postcode": "CT27QY"
  },
  {
    "name": "Megan Gilligan",
    "phone": "07825613105",
    "postcode": "CT27QY"
  },
  {
    "name": "James Yorke",
    "phone": "07548 666478",
    "postcode": "CT27QY"
  },
  {
    "name": "Rebecca Scannapieco",
    "phone": "07707836052",
    "postcode": "CT27QY"
  },
  {
    "name": "Harvey Christmas",
    "phone": "07717611529",
    "postcode": "CT27QY"
  },
  {
    "name": "Harry",
    "phone": "07847597052",
    "postcode": "CT27QZ"
  },
  {
    "name": "Josh Williams",
    "phone": "07479546271",
    "postcode": "CT27QZ"
  },
  {
    "name": "Theo Ching",
    "phone": "07447927772",
    "postcode": "CT27RE"
  },
  {
    "name": "Sophie",
    "phone": "07715875499",
    "postcode": "CT27RE"
  },
  {
    "name": "Georgia",
    "phone": "07979075806",
    "postcode": "CT27RE"
  },
  {
    "name": "Shimmara Dhugga",
    "phone": "07972611082",
    "postcode": "CT27RF"
  },
  {
    "name": "Federick Sacco",
    "phone": "07342389339",
    "postcode": "CT27RF"
  },
  {
    "name": "Shimmara Dhugga",
    "phone": "07972614082",
    "postcode": "CT27RF"
  },
  {
    "name": "Kritam",
    "phone": "07472718864",
    "postcode": "CT27RF"
  },
  {
    "name": "Maisha shareef",
    "phone": "07427469776",
    "postcode": "CT27RF"
  },
  {
    "name": "Ben Dorset",
    "phone": "07907677600",
    "postcode": "CT27RF"
  },
  {
    "name": "Amelia Eastman",
    "phone": "07852653594",
    "postcode": "CT27RF"
  },
  {
    "name": "Liam",
    "phone": "07902817982",
    "postcode": "CT27RP"
  },
  {
    "name": "Krishan Shah",
    "phone": "07864571725",
    "postcode": "CT27RP"
  },
  {
    "name": "Imam Alfudhaili",
    "phone": "07478948593",
    "postcode": "CT27RP"
  },
  {
    "name": "Jack Howe",
    "phone": "07749709483",
    "postcode": "CT27RP"
  },
  {
    "name": "Jake Mitson",
    "phone": "07709577137",
    "postcode": "CT27RP"
  },
  {
    "name": "Edward Goddard",
    "phone": "07808151656",
    "postcode": "CT27RR"
  },
  {
    "name": "rachel bailey",
    "phone": "07872936968",
    "postcode": "CT27RS"
  },
  {
    "name": "Ellie",
    "phone": "07793489200",
    "postcode": "CT27RT"
  },
  {
    "name": "Carys Davis",
    "phone": "07789386721",
    "postcode": "CT27RX"
  },
  {
    "name": "Juhee",
    "phone": "07710520996",
    "postcode": "CT27RX"
  },
  {
    "name": "Louise Tasker",
    "phone": "07548951417",
    "postcode": "CT27RZ"
  },
  {
    "name": "Hannah Traynor",
    "phone": "07454276869",
    "postcode": "CT27RZ"
  },
  {
    "name": "Elliott Sampayo",
    "phone": "07858383430",
    "postcode": "CT27RZ"
  },
  {
    "name": "Harry Clarke",
    "phone": "07854762113",
    "postcode": "CT27SE"
  },
  {
    "name": "Ayataeb Saudin",
    "phone": "07746372142",
    "postcode": "CT27SH"
  },
  {
    "name": "Emi Lio",
    "phone": "07377134037",
    "postcode": "CT27SJ"
  },
  {
    "name": "Lewis Alford",
    "phone": "07713720534",
    "postcode": "CT27SQ"
  },
  {
    "name": "Hannah Morrisroe",
    "phone": "07757109799",
    "postcode": "CT27SQ"
  },
  {
    "name": "Katie Farache",
    "phone": "07790940500",
    "postcode": "CT27SQ"
  },
  {
    "name": "Burhan Tam",
    "phone": "07399846610",
    "postcode": "CT27SR"
  },
  {
    "name": "Linnea",
    "phone": "07756743180",
    "postcode": "CT27SR"
  },
  {
    "name": "Tarrant Telford",
    "phone": "07432105118",
    "postcode": "CT27SR"
  },
  {
    "name": "Ken",
    "phone": "07495509546",
    "postcode": "CT27SR"
  },
  {
    "name": "James Carr",
    "phone": "07722121303",
    "postcode": "CT27SS"
  },
  {
    "name": "Millie",
    "phone": "07500019500",
    "postcode": "CT27ST"
  },
  {
    "name": "Yogish Rai Sookha",
    "phone": "07919461023",
    "postcode": "CT27ST"
  },
  {
    "name": "Sarah Moynihan",
    "phone": "07543509727",
    "postcode": "CT27SU"
  },
  {
    "name": "Sean",
    "phone": "07437017292",
    "postcode": "CT27SU"
  },
  {
    "name": "George Ray",
    "phone": "07985489902",
    "postcode": "CT27SX"
  },
  {
    "name": "Brandon Lawrence",
    "phone": "07493987306",
    "postcode": "CT27SX"
  },
  {
    "name": "Daniella Wu",
    "phone": "07951750261",
    "postcode": "CT27SY"
  },
  {
    "name": "Charlotte",
    "phone": "07926676187",
    "postcode": "CT27TB"
  },
  {
    "name": "Flo Padfield",
    "phone": "07456600010",
    "postcode": "CT27TB"
  },
  {
    "name": "Rachel Weatherly",
    "phone": "01227450372",
    "postcode": "CT27TB"
  },
  {
    "name": "Alex Roberts",
    "phone": "07887354713",
    "postcode": "CT27TB"
  },
  {
    "name": "Kyle",
    "phone": "07803703538",
    "postcode": "CT27TD"
  },
  {
    "name": "Kyle",
    "phone": "07803703536",
    "postcode": "CT27TD"
  },
  {
    "name": "Chloe Adams",
    "phone": "01227459642",
    "postcode": "CT27TD"
  },
  {
    "name": "Carl",
    "phone": "07541737899",
    "postcode": "CT27TE"
  },
  {
    "name": "Muhammad Imran",
    "phone": "07783911194",
    "postcode": "CT27TF"
  },
  {
    "name": "Keshav Vinayagar",
    "phone": "07821436742",
    "postcode": "CT27TF"
  },
  {
    "name": "Laura Anne Watson",
    "phone": "07583371902",
    "postcode": "CT27TF"
  },
  {
    "name": "Emma Grana",
    "phone": "07715450034",
    "postcode": "CT27TG"
  },
  {
    "name": "Georgey Porgey",
    "phone": "07725907376",
    "postcode": "CT27TN"
  },
  {
    "name": "Georgey",
    "phone": "07725907805",
    "postcode": "CT27TN"
  },
  {
    "name": "Alisher Oshakbayev",
    "phone": "07757 496527",
    "postcode": "CT27TN"
  },
  {
    "name": "helen whittle",
    "phone": "07874775331",
    "postcode": "CT27TN"
  },
  {
    "name": "Neil Beszant",
    "phone": "07714210172",
    "postcode": "CT27TN"
  },
  {
    "name": "ioanna",
    "phone": "07784366933",
    "postcode": "CT27TN"
  },
  {
    "name": "Ana Stojanovic",
    "phone": "07814699857",
    "postcode": "CT27TN"
  },
  {
    "name": "semih ozyurt",
    "phone": "07710167139",
    "postcode": "CT27TP"
  },
  {
    "name": "James Forward",
    "phone": "0+44 7986 277121",
    "postcode": "CT27TP"
  },
  {
    "name": "Bobby Devine",
    "phone": "07958917051",
    "postcode": "CT27TQ"
  },
  {
    "name": "Ben Foster",
    "phone": "01227459131",
    "postcode": "CT27TQ"
  },
  {
    "name": "louise fuidge",
    "phone": "07738004372",
    "postcode": "CT27TQ"
  },
  {
    "name": "Shanice Rees",
    "phone": "07904382120",
    "postcode": "CT27TR"
  },
  {
    "name": "Niall Moroney",
    "phone": "07779154191",
    "postcode": "CT27TR"
  },
  {
    "name": "Becky",
    "phone": "07482012279",
    "postcode": "CT27TR"
  },
  {
    "name": "Oliver Rubin",
    "phone": "07871841264",
    "postcode": "CT27TR"
  },
  {
    "name": "Sean Marsh",
    "phone": "07802463316",
    "postcode": "CT27TS"
  },
  {
    "name": "Peter Rigby",
    "phone": "07969177406",
    "postcode": "CT27TT"
  },
  {
    "name": "Oliver Shustock",
    "phone": "07527211644",
    "postcode": "CT27TT"
  },
  {
    "name": "Thabo Xabanisa",
    "phone": "07710560514",
    "postcode": "CT27TT"
  },
  {
    "name": "Marcello Seminara",
    "phone": "07557981328",
    "postcode": "CT27TT"
  },
  {
    "name": "Hayleigh Phillips",
    "phone": "07521765741",
    "postcode": "CT27TU"
  },
  {
    "name": "Gabija Rasiukeviciute",
    "phone": "07760524532",
    "postcode": "CT27TU"
  },
  {
    "name": "Peter Ould",
    "phone": "07748706987",
    "postcode": "CT27TU"
  },
  {
    "name": "Lauren Gibbons",
    "phone": "07846078112",
    "postcode": "CT27TW"
  },
  {
    "name": "Rachel Bale",
    "phone": "07891877331",
    "postcode": "CT27TW"
  },
  {
    "name": "Ozan Demirhan",
    "phone": "07918528628",
    "postcode": "CT27TW"
  },
  {
    "name": "Emily Lloyd-Murray",
    "phone": "07753103786",
    "postcode": "CT27TW"
  },
  {
    "name": "Chiara Blardoni",
    "phone": "07508015236",
    "postcode": "CT27TW"
  },
  {
    "name": "tony",
    "phone": "01227450183",
    "postcode": "CT27TX"
  },
  {
    "name": "Jack Young",
    "phone": "07887534882",
    "postcode": "CT27TZ"
  },
  {
    "name": "Ciara Larkin",
    "phone": "07850331613",
    "postcode": "CT27UF"
  },
  {
    "name": "Rola",
    "phone": "07405266181",
    "postcode": "CT27UF"
  },
  {
    "name": "Jean",
    "phone": "07388930969",
    "postcode": "CT27UF"
  },
  {
    "name": "Sarah Lawless",
    "phone": "07086601090",
    "postcode": "CT27UF"
  },
  {
    "name": "Nilaza Adhikari",
    "phone": "07460664991",
    "postcode": "CT27UF"
  },
  {
    "name": "Hailey Gitau",
    "phone": "07493232830",
    "postcode": "CT27UF"
  },
  {
    "name": "Imran zeb",
    "phone": "07471943819",
    "postcode": "CT27UF"
  },
  {
    "name": "Ellie Rowe",
    "phone": "07505023749",
    "postcode": "CT27UF"
  },
  {
    "name": "javon",
    "phone": "07825379688",
    "postcode": "CT27UF"
  },
  {
    "name": "Jamiu Otuyo",
    "phone": "07503193650",
    "postcode": "CT27UF"
  },
  {
    "name": "Inno Genga",
    "phone": "07725097569",
    "postcode": "CT27UF"
  },
  {
    "name": "George Dodd",
    "phone": "07765979388",
    "postcode": "CT27UF"
  },
  {
    "name": "Jessica Glenn",
    "phone": "07908608165",
    "postcode": "CT27UF"
  },
  {
    "name": "Jay lynch",
    "phone": "07900978870",
    "postcode": "CT27UF"
  },
  {
    "name": "Tunai Bourne",
    "phone": "07897809727",
    "postcode": "CT27UF"
  },
  {
    "name": "Oliver Marshall",
    "phone": "07538565104",
    "postcode": "CT27UF"
  },
  {
    "name": "Joy",
    "phone": "07724061094",
    "postcode": "CT27UF"
  },
  {
    "name": "chris",
    "phone": "07807991807",
    "postcode": "CT27UF"
  },
  {
    "name": "Konrad Burr",
    "phone": "07478090097",
    "postcode": "CT27UF"
  },
  {
    "name": "abdelaziz kashwani",
    "phone": "07404879909",
    "postcode": "CT27UF"
  },
  {
    "name": "Katie Price",
    "phone": "07930182281",
    "postcode": "CT27UH"
  },
  {
    "name": "Sam",
    "phone": "07400577395",
    "postcode": "CT27UH"
  },
  {
    "name": "Charlotte Harrison",
    "phone": "07952047397",
    "postcode": "CT27UJ"
  },
  {
    "name": "Faisal",
    "phone": "07479969600",
    "postcode": "CT27UJ"
  },
  {
    "name": "Chadni Patel",
    "phone": "07746882860",
    "postcode": "CT27UL"
  },
  {
    "name": "Sandra",
    "phone": "07912412045",
    "postcode": "CT27UQ"
  },
  {
    "name": "Melissa Gladwell",
    "phone": "07867804866",
    "postcode": "CT27UR"
  },
  {
    "name": "Naser Alsbaiei",
    "phone": "07477998665",
    "postcode": "CT27US"
  },
  {
    "name": "Natalie Lyttle",
    "phone": "07468568578",
    "postcode": "CT27US"
  },
  {
    "name": "Harry Bateman",
    "phone": "07892707570",
    "postcode": "CT27US"
  },
  {
    "name": "Muhammad Eraibey",
    "phone": "07514003468",
    "postcode": "CT27US"
  },
  {
    "name": "Natal",
    "phone": "07468568579",
    "postcode": "CT27US"
  },
  {
    "name": "Harry de Carle",
    "phone": "07803296841",
    "postcode": "CT27US"
  },
  {
    "name": "Katie Jones",
    "phone": "07730379810",
    "postcode": "CT27US"
  },
  {
    "name": "Paul Lyttle",
    "phone": "07920 401966",
    "postcode": "CT27US"
  },
  {
    "name": "Ann Barraclough,",
    "phone": "07551167679",
    "postcode": "CT27US"
  },
  {
    "name": "Avon Liu",
    "phone": "07380987082",
    "postcode": "CT27UT"
  },
  {
    "name": "Sam",
    "phone": "07853135561",
    "postcode": "CT27UT"
  },
  {
    "name": "Kabir Panwar",
    "phone": "07492266002",
    "postcode": "CT27UT"
  },
  {
    "name": "seamus dale",
    "phone": "07775982240",
    "postcode": "CT27UT"
  },
  {
    "name": "Bipin Jain",
    "phone": "07404449927",
    "postcode": "CT27UU"
  },
  {
    "name": "Rawan Almansoor",
    "phone": "07598923630",
    "postcode": "CT27UU"
  },
  {
    "name": "Ramsha Jamil",
    "phone": "07384121271",
    "postcode": "CT27UY"
  },
  {
    "name": "Sophie ONeil",
    "phone": "07916296997",
    "postcode": "CT27UY"
  },
  {
    "name": "Aaron",
    "phone": "07956546587",
    "postcode": "CT27UY"
  },
  {
    "name": "Pavel",
    "phone": "07493096880",
    "postcode": "CT27UY"
  },
  {
    "name": "Brijesh Sahoo",
    "phone": "07834737856",
    "postcode": "CT27UZ"
  },
  {
    "name": "Pk Mridhulaa",
    "phone": "07713940362",
    "postcode": "CT27WT"
  },
  {
    "name": "Akib Mansur",
    "phone": "07462936061",
    "postcode": "CT27WT"
  },
  {
    "name": "Ellie Noyes",
    "phone": "07733262141",
    "postcode": "CT27WU"
  },
  {
    "name": "Chris Sharrock",
    "phone": "07943747145",
    "postcode": "CT27WU"
  },
  {
    "name": "Azra Manori",
    "phone": "07961397364",
    "postcode": "CT27WU"
  },
  {
    "name": "Timothy Jackson",
    "phone": "07946296922",
    "postcode": "CT27WU"
  },
  {
    "name": "Shanice Rees",
    "phone": "07732332602",
    "postcode": "CT27WW"
  },
  {
    "name": "Charlie Wickam",
    "phone": "07834395025",
    "postcode": "CT27WW"
  },
  {
    "name": "Gokul Goyal",
    "phone": "07471543660",
    "postcode": "CT27WW"
  },
  {
    "name": "Dan Hammond",
    "phone": "07581221140",
    "postcode": "CT27WY"
  },
  {
    "name": "Danial Kahn",
    "phone": "07717275404",
    "postcode": "CT27WY"
  },
  {
    "name": "Kat Rainbird",
    "phone": "07704970095",
    "postcode": "CT27WY"
  },
  {
    "name": "Nicholas Christou",
    "phone": "07447160370",
    "postcode": "CT28AA"
  },
  {
    "name": "Andrew Harper",
    "phone": "07974117294",
    "postcode": "CT28AD"
  },
  {
    "name": "Martin",
    "phone": "07850102850",
    "postcode": "CT28AD"
  },
  {
    "name": "James Barton",
    "phone": "07875268493",
    "postcode": "CT28AG"
  },
  {
    "name": "James Barton",
    "phone": "07875268499",
    "postcode": "CT28AG"
  },
  {
    "name": "josh lott",
    "phone": "07940225220",
    "postcode": "CT28AG"
  },
  {
    "name": "Mr Jdm Hayes",
    "phone": "07725343229",
    "postcode": "CT28AG"
  },
  {
    "name": "Sally Newton",
    "phone": "01227687221",
    "postcode": "CT28AN"
  },
  {
    "name": "Emile James",
    "phone": "07582583352",
    "postcode": "CT28AN"
  },
  {
    "name": "Harry Ward",
    "phone": "07554882481",
    "postcode": "CT28AN"
  },
  {
    "name": "Nathan Wilmot",
    "phone": "07936684220",
    "postcode": "CT28AN"
  },
  {
    "name": "Mark Reid",
    "phone": "07767302889",
    "postcode": "CT28AN"
  },
  {
    "name": "Maude Loy",
    "phone": "07490441290",
    "postcode": "CT28AP"
  },
  {
    "name": "Ellie",
    "phone": "07875891446",
    "postcode": "CT28AP"
  },
  {
    "name": "James Siwela",
    "phone": "07910668299",
    "postcode": "CT28AT"
  },
  {
    "name": "Tracy Saunders",
    "phone": "07976641596",
    "postcode": "CT28AW"
  },
  {
    "name": "Chris",
    "phone": "07503938989",
    "postcode": "CT28AZ"
  },
  {
    "name": "Ivor Richards",
    "phone": "07513039877",
    "postcode": "CT28BB"
  },
  {
    "name": "Victoria Louise Howard",
    "phone": "07875206471",
    "postcode": "CT28BB"
  },
  {
    "name": "Archie Macdonald",
    "phone": "07432597166",
    "postcode": "CT28BB"
  },
  {
    "name": "mr paul dobson",
    "phone": "07712446406",
    "postcode": "CT28BG"
  },
  {
    "name": "Elise Pickard",
    "phone": "07765955557",
    "postcode": "CT28BZ"
  },
  {
    "name": "Myles Donnelly",
    "phone": "07747590680",
    "postcode": "CT28BZ"
  },
  {
    "name": "Harriet Theakston",
    "phone": "07518414550",
    "postcode": "CT28DE"
  },
  {
    "name": "Daniella Gonzalez",
    "phone": "07887427241",
    "postcode": "CT28DE"
  },
  {
    "name": "Harri Theakston",
    "phone": "07807173134",
    "postcode": "CT28DE"
  },
  {
    "name": "Katie Hardy",
    "phone": "07508421655",
    "postcode": "CT28DE"
  },
  {
    "name": "Jack mayhew",
    "phone": "07584220283",
    "postcode": "CT28DH"
  },
  {
    "name": "Emily Lamert",
    "phone": "07933017701",
    "postcode": "CT28DL"
  },
  {
    "name": "SING WAH CHAN",
    "phone": "07447513060",
    "postcode": "CT28DL"
  },
  {
    "name": "Emma Fletcher",
    "phone": "07853265784",
    "postcode": "CT28DL"
  },
  {
    "name": "Katie Bovington",
    "phone": "07714683219",
    "postcode": "CT28DL"
  },
  {
    "name": "Nancy Card",
    "phone": "07796462107",
    "postcode": "CT28DL"
  },
  {
    "name": "Fatma Salahioglu",
    "phone": "07504800531",
    "postcode": "CT28DR"
  },
  {
    "name": "Masha Bogodage",
    "phone": "07449600954",
    "postcode": "CT28DR"
  },
  {
    "name": "Anzhe Li",
    "phone": "07773969454",
    "postcode": "CT28DR"
  },
  {
    "name": "Joe Attard",
    "phone": "07730883308",
    "postcode": "CT28DR"
  },
  {
    "name": "Nadine Eldewiny",
    "phone": "07375693442",
    "postcode": "CT28DS"
  },
  {
    "name": "Tamar Renshaw-Calisse",
    "phone": "07549875751",
    "postcode": "CT28DS"
  },
  {
    "name": "andrew weaver",
    "phone": "07808117559",
    "postcode": "CT28DS"
  },
  {
    "name": "Tracey Jenkins",
    "phone": "07749094311",
    "postcode": "CT28DU"
  },
  {
    "name": "Tracey Jenkins",
    "phone": "07749094314",
    "postcode": "CT28DU"
  },
  {
    "name": "Kinga",
    "phone": "07714625307",
    "postcode": "CT28EA"
  },
  {
    "name": "Ryan Vincent",
    "phone": "07805807375",
    "postcode": "CT28EB"
  },
  {
    "name": "Vicky Hester",
    "phone": "01227766597",
    "postcode": "CT28EE"
  },
  {
    "name": "Marie hutchinson",
    "phone": "07766571851",
    "postcode": "CT28EN"
  },
  {
    "name": "Adam Leach",
    "phone": "07427469329",
    "postcode": "CT28EP"
  },
  {
    "name": "Harry Clelow",
    "phone": "07464597905",
    "postcode": "CT28EP"
  },
  {
    "name": "Jeffrey Edo-Benson",
    "phone": "07964816761",
    "postcode": "CT28EP"
  },
  {
    "name": "Clare Griffiths",
    "phone": "07778333191",
    "postcode": "CT28EP"
  },
  {
    "name": "Amelia Crooking",
    "phone": "07972376584",
    "postcode": "CT28ER"
  },
  {
    "name": "Lorna",
    "phone": "07546720137",
    "postcode": "CT28ES"
  },
  {
    "name": "Karl",
    "phone": "07497973925",
    "postcode": "CT28ET"
  },
  {
    "name": "Clive",
    "phone": "07849652311",
    "postcode": "CT28EX"
  },
  {
    "name": "Duncar Langford",
    "phone": "07971641991",
    "postcode": "CT28EY"
  },
  {
    "name": "Gloria Rees",
    "phone": "07949304022",
    "postcode": "CT28EZ"
  },
  {
    "name": "Elisabeth Bitzan",
    "phone": "07741257516",
    "postcode": "CT28EZ"
  },
  {
    "name": "Forrest Bargewell",
    "phone": "07944531334",
    "postcode": "CT28EZ"
  },
  {
    "name": "Yali Sun",
    "phone": "07516604610",
    "postcode": "CT28FB"
  },
  {
    "name": "Yali Sun",
    "phone": "07513601610",
    "postcode": "CT28FB"
  },
  {
    "name": "Yali Sun",
    "phone": "07513604610",
    "postcode": "CT28FB"
  },
  {
    "name": "Laura Hylands",
    "phone": "07923616447",
    "postcode": "CT28FE"
  },
  {
    "name": "Faisal Kaiksow",
    "phone": "07437339888",
    "postcode": "CT28FF"
  },
  {
    "name": "Wei Jin Tan",
    "phone": "07455502583",
    "postcode": "CT28HD"
  },
  {
    "name": "Jamie",
    "phone": "07423196211",
    "postcode": "CT28HD"
  },
  {
    "name": "Aishwarya Nambiar",
    "phone": "07706757632",
    "postcode": "CT28HD"
  },
  {
    "name": "Summer Gibb",
    "phone": "07545092680",
    "postcode": "CT28HE"
  },
  {
    "name": "Matt",
    "phone": "07588491223",
    "postcode": "CT28HP"
  },
  {
    "name": "Mark Read",
    "phone": "07528577757",
    "postcode": "CT28HP"
  },
  {
    "name": "Mark Read",
    "phone": "07528577752",
    "postcode": "CT28HP"
  },
  {
    "name": "Cai England",
    "phone": "07951999964",
    "postcode": "CT28HP"
  },
  {
    "name": "George Cowell",
    "phone": "07864835764",
    "postcode": "CT28HW"
  },
  {
    "name": "Kane Aidoo-Williams",
    "phone": "07871667965",
    "postcode": "CT28HW"
  },
  {
    "name": "Lizzie",
    "phone": "07471939295",
    "postcode": "CT28HY"
  },
  {
    "name": "Shelly Pearce",
    "phone": "07783642328",
    "postcode": "CT28HY"
  },
  {
    "name": "lidia brody",
    "phone": "07432284462",
    "postcode": "CT28JH"
  },
  {
    "name": "harry",
    "phone": "07765035114",
    "postcode": "CT28JH"
  },
  {
    "name": "jo Goldsworthy",
    "phone": "07583227001",
    "postcode": "CT28JJ"
  },
  {
    "name": "Tierney Bean",
    "phone": "07496652982",
    "postcode": "CT28JN"
  },
  {
    "name": "Rory Emery",
    "phone": "07453301761",
    "postcode": "CT28JN"
  },
  {
    "name": "Kerry Ashby",
    "phone": "07525376390",
    "postcode": "CT28JP"
  },
  {
    "name": "Ellie Wilson",
    "phone": "07955228404",
    "postcode": "CT28JR"
  },
  {
    "name": "Ellie Wilson",
    "phone": "01223563966",
    "postcode": "CT28JR"
  },
  {
    "name": "Connor Westley",
    "phone": "07500038591",
    "postcode": "CT28JS"
  },
  {
    "name": "Rob Lintor",
    "phone": "07583667504",
    "postcode": "CT28JY"
  },
  {
    "name": "James Drouot",
    "phone": "07988998186",
    "postcode": "CT28JY"
  },
  {
    "name": "James",
    "phone": "07508626546",
    "postcode": "CT28LB"
  },
  {
    "name": "andrea walker",
    "phone": "07710548902",
    "postcode": "CT28LJ"
  },
  {
    "name": "Darshana Sabhi Appanna",
    "phone": "07771416432",
    "postcode": "CT28LJ"
  },
  {
    "name": "Vickey",
    "phone": "07584661004",
    "postcode": "CT28LL"
  },
  {
    "name": "Paul Griffiths",
    "phone": "07817637773",
    "postcode": "CT28LN"
  },
  {
    "name": "Andrew Baldwin",
    "phone": "07766945031",
    "postcode": "CT28LN"
  },
  {
    "name": "Emily Lyons",
    "phone": "07540333676",
    "postcode": "CT28LQ"
  },
  {
    "name": "Kelly",
    "phone": "07598603516",
    "postcode": "CT28NS"
  },
  {
    "name": "Kelly",
    "phone": "07751078222",
    "postcode": "CT28NS"
  },
  {
    "name": "kelly",
    "phone": "01227787692",
    "postcode": "CT28NS"
  },
  {
    "name": "Martin Henderson",
    "phone": "07748259884",
    "postcode": "CT28NY"
  },
  {
    "name": "Martin Henderson",
    "phone": "07748259334",
    "postcode": "CT28NY"
  },
  {
    "name": "Scott Day",
    "phone": "07775615616",
    "postcode": "CT28PA"
  },
  {
    "name": "Anthony mooney",
    "phone": "07710485916",
    "postcode": "CT28PB"
  },
  {
    "name": "Lucy Foster",
    "phone": "07455859759",
    "postcode": "CT28PD"
  },
  {
    "name": "Connor Gisby,",
    "phone": "07853935700",
    "postcode": "CT28PD"
  },
  {
    "name": "Zoe Laker-Smith",
    "phone": "07764584781",
    "postcode": "CT28PE"
  },
  {
    "name": "James Arnold",
    "phone": "07769220828",
    "postcode": "CT28PJ"
  },
  {
    "name": "Anthony Grimes",
    "phone": "07725689881",
    "postcode": "CT28PL"
  },
  {
    "name": "Anthony Grimes",
    "phone": "07725689634",
    "postcode": "CT28PL"
  },
  {
    "name": "Charlie",
    "phone": "07469890751",
    "postcode": "CT28PN"
  },
  {
    "name": "Lee Miles",
    "phone": "07973425076",
    "postcode": "CT28PP"
  },
  {
    "name": "Ryan Drew",
    "phone": "07584 573108",
    "postcode": "CT28PQ"
  },
  {
    "name": "matthew pearl",
    "phone": "07772176194",
    "postcode": "CT28PQ"
  },
  {
    "name": "Ricky Richards",
    "phone": "07856972125",
    "postcode": "CT28PQ"
  },
  {
    "name": "Farhana Uddin",
    "phone": "07930275493",
    "postcode": "CT28PQ"
  },
  {
    "name": "Elizabeth Davies",
    "phone": "07835647570",
    "postcode": "CT28PR"
  },
  {
    "name": "Edward",
    "phone": "07487424421",
    "postcode": "CT28PR"
  },
  {
    "name": "Thomas Cook",
    "phone": "07443605201",
    "postcode": "CT28PR"
  },
  {
    "name": "sophie buckman",
    "phone": "07864395606",
    "postcode": "CT28PW"
  },
  {
    "name": "Sean Davey",
    "phone": "07773427494",
    "postcode": "CT28PX"
  },
  {
    "name": "Wendy",
    "phone": "07733762955",
    "postcode": "CT28PY"
  },
  {
    "name": "Darryl Pritchett",
    "phone": "07857125788",
    "postcode": "CT28PZ"
  },
  {
    "name": "Monica Bogtar",
    "phone": "07432451207",
    "postcode": "CT28PZ"
  },
  {
    "name": "Lizzie",
    "phone": "07814096833",
    "postcode": "CT28QB"
  },
  {
    "name": "Vanessa Greton",
    "phone": "01227780422",
    "postcode": "CT28QB"
  },
  {
    "name": "Shanet Graham",
    "phone": "07871912825",
    "postcode": "CT28QB"
  },
  {
    "name": "Richard Hughes",
    "phone": "07446719965",
    "postcode": "CT28QH"
  },
  {
    "name": "Jim Robinson",
    "phone": "07710532623",
    "postcode": "CT28SD"
  },
  {
    "name": "Christian Browne",
    "phone": "07460820441",
    "postcode": "CT28SD"
  },
  {
    "name": "Malik",
    "phone": "07577610081",
    "postcode": "CT28SP"
  },
  {
    "name": "DANIEL BANKS",
    "phone": "07779247505",
    "postcode": "CT28SP"
  },
  {
    "name": "Jim Mitchell",
    "phone": "07798875620",
    "postcode": "CT34AB"
  },
  {
    "name": "Peter Leonard",
    "phone": "07852499501",
    "postcode": "CT47BG"
  },
  {
    "name": "Bobby Fox",
    "phone": "07479989959",
    "postcode": "CT27NP"
  },
  {
    "name": "Ishmam Chowdhury",
    "phone": "07538930806",
    "postcode": "CT27NY"
  },
  {
    "name": "Jackson",
    "phone": "07808895605",
    "postcode": "CT27NY"
  },
  {
    "name": "Kristina satherley",
    "phone": "07590055700",
    "postcode": "CT27NY"
  },
  {
    "name": "Manish Nair",
    "phone": "07909158854",
    "postcode": "CT27NY"
  },
  {
    "name": "Alexander Cook",
    "phone": "07891858791",
    "postcode": "CT27NY"
  },
  {
    "name": "David",
    "phone": "07921694944",
    "postcode": "CT27NS"
  },
  {
    "name": "Vaughn Sinclair",
    "phone": "07465246225",
    "postcode": "CT27NS"
  },
  {
    "name": "Hamza Mouhtarim",
    "phone": "07450901389",
    "postcode": "CT27NS"
  },
  {
    "name": "Hamza Mouhtarim",
    "phone": "07450901383",
    "postcode": "CT27NS"
  },
  {
    "name": "James Kavanagh",
    "phone": "07837655119",
    "postcode": "CT27NS"
  },
  {
    "name": "Charlotte",
    "phone": "07957212532",
    "postcode": "CT27NX"
  },
  {
    "name": "Sam Grobovic",
    "phone": "07584228707",
    "postcode": "CT27NX"
  },
  {
    "name": "Sam Ashby",
    "phone": "07902928611",
    "postcode": "CT27NX"
  },
  {
    "name": "Alfie",
    "phone": "07984572220",
    "postcode": "CT27NX"
  },
  {
    "name": "Macauley Singh",
    "phone": "07982317249",
    "postcode": ""
  },
  {
    "name": "Timothy Manning",
    "phone": "07919281616",
    "postcode": ""
  },
  {
    "name": "Dawn Drew",
    "phone": "07889710441",
    "postcode": ""
  },
  {
    "name": "Andrew Morris",
    "phone": "07907084301",
    "postcode": ""
  },
  {
    "name": "Lauren",
    "phone": "07938805406",
    "postcode": ""
  },
  {
    "name": "Ross Thompson",
    "phone": "07787551322",
    "postcode": ""
  },
  {
    "name": "Immad Siddig",
    "phone": "07850395673",
    "postcode": ""
  },
  {
    "name": "Martyn Beer",
    "phone": "01227710293",
    "postcode": ""
  },
  {
    "name": "Katie Blake",
    "phone": "07730885423",
    "postcode": ""
  },
  {
    "name": "Neil Kirk",
    "phone": "07972281789",
    "postcode": ""
  },
  {
    "name": "Joel",
    "phone": "07841461403",
    "postcode": ""
  },
  {
    "name": "Megan Chambers",
    "phone": "07763578551",
    "postcode": ""
  },
  {
    "name": "Azim Daud",
    "phone": "07546217060",
    "postcode": ""
  },
  {
    "name": "Jessica",
    "phone": "07432478151",
    "postcode": ""
  },
  {
    "name": "Kenan Tezcan",
    "phone": "07546336383",
    "postcode": ""
  },
  {
    "name": "Tom Ritchie",
    "phone": "07791414538",
    "postcode": ""
  },
  {
    "name": "Warren Morgan",
    "phone": "07943267471",
    "postcode": ""
  },
  {
    "name": "Rosemary ONeill",
    "phone": "07557404704",
    "postcode": "CT20AJ"
  },
  {
    "name": "Rosemary O Neil",
    "phone": "07567404704",
    "postcode": "CT20AJ"
  },
  {
    "name": "Claire Marday",
    "phone": "07498459476",
    "postcode": "CT20EJ"
  },
  {
    "name": "Claire Marday",
    "phone": "07856007039",
    "postcode": "CT20EJ"
  },
  {
    "name": "Bradley",
    "phone": "07803464803",
    "postcode": "CT29BU"
  },
  {
    "name": "Nic",
    "phone": "07826867785",
    "postcode": "CT29BU"
  },
  {
    "name": "Catherine berry",
    "phone": "07562595579",
    "postcode": "CT29BU"
  },
  {
    "name": "Leigh Parslow",
    "phone": "07783669843",
    "postcode": "CT29BU"
  },
  {
    "name": "Thomas Piercey",
    "phone": "07743025098",
    "postcode": "CT29BU"
  },
  {
    "name": "Andy Davin",
    "phone": "07792097566",
    "postcode": "CT20HY"
  },
  {
    "name": "Rachel",
    "phone": "07894950559",
    "postcode": "CT20HY"
  },
  {
    "name": "Rachel",
    "phone": "07894950555",
    "postcode": "CT20HY"
  },
  {
    "name": "Me",
    "phone": "07811332665",
    "postcode": "CT28AU"
  },
  {
    "name": "Brenda-Lee Kettle",
    "phone": "07594544590",
    "postcode": "CT11LQ"
  },
  {
    "name": "Harry Blake",
    "phone": "07476155513",
    "postcode": "CT29DP"
  },
  {
    "name": "Chris",
    "phone": "07711215979",
    "postcode": "CT29DP"
  },
  {
    "name": "Mark Wilding",
    "phone": "01227712294",
    "postcode": "CT20NZ"
  },
  {
    "name": "Robert Lawrie",
    "phone": "07792389350",
    "postcode": "CT20EB"
  },
  {
    "name": "Heidi Bradshaw",
    "phone": "07753667727",
    "postcode": "CT20PF"
  },
  {
    "name": "Hollie",
    "phone": "07472325606",
    "postcode": "CT20PF"
  },
  {
    "name": "Donna",
    "phone": "07522488101",
    "postcode": "CT20PF"
  },
  {
    "name": "James Farley",
    "phone": "07943628787",
    "postcode": "CT29HA"
  },
  {
    "name": "James Farley",
    "phone": "07943 628787",
    "postcode": "CT29HA"
  },
  {
    "name": "James Farley",
    "phone": "0  07943 628787",
    "postcode": "CT29HA"
  },
  {
    "name": "James Farley",
    "phone": "0 01227 479984",
    "postcode": "CT29HA"
  },
  {
    "name": "James Farley",
    "phone": "0 07943 628787",
    "postcode": "CT29HA"
  },
  {
    "name": "James Farley",
    "phone": "0    07943 628787",
    "postcode": "CT29HA"
  },
  {
    "name": "Asil",
    "phone": "07393365622",
    "postcode": "CT11GA"
  },
  {
    "name": "Adam",
    "phone": "07525420806",
    "postcode": "CT11GA"
  },
  {
    "name": "Hannah Hacker",
    "phone": "07487735009",
    "postcode": "CT11GA"
  },
  {
    "name": "Shannon Morrison",
    "phone": "07715074904",
    "postcode": "CT26PG"
  },
  {
    "name": "Rachel Russell",
    "phone": "07891585100",
    "postcode": "CT46EW"
  },
  {
    "name": "Marc Matthews",
    "phone": "01227713848",
    "postcode": "CT34EX"
  },
  {
    "name": "Maro Matthews",
    "phone": "07912570940",
    "postcode": "CT34EX"
  },
  {
    "name": "Tracey Rogers",
    "phone": "07770746312",
    "postcode": "CT20JP"
  },
  {
    "name": "Annwen Adams",
    "phone": "07908574348",
    "postcode": "CT23SX"
  },
  {
    "name": "Julie Hadlow",
    "phone": "07854343644",
    "postcode": "CT20QD"
  },
  {
    "name": "Julie Hadlow",
    "phone": "07854343844",
    "postcode": "CT20QD"
  },
  {
    "name": "Gabi Field",
    "phone": "07795420198",
    "postcode": "CT20QD"
  },
  {
    "name": "Julie Hadlow",
    "phone": "07854343944",
    "postcode": "CT20QD"
  },
  {
    "name": "Joanne Dolman",
    "phone": "07979917222",
    "postcode": "CT34JF"
  },
  {
    "name": "Sheree",
    "phone": "07375481973",
    "postcode": "CT20PB"
  },
  {
    "name": "Danny",
    "phone": "07702627199",
    "postcode": "CT20PB"
  },
  {
    "name": "James Moon",
    "phone": "07453323701",
    "postcode": "CT20PB"
  },
  {
    "name": "Jordan",
    "phone": "07522306895",
    "postcode": "CT20PB"
  },
  {
    "name": "dave capper",
    "phone": "07746007852",
    "postcode": "CT20PB"
  },
  {
    "name": "Mike Cork",
    "phone": "07399419801",
    "postcode": "CT29NE"
  },
  {
    "name": "H McClean",
    "phone": "01227458481",
    "postcode": "CT29HR"
  },
  {
    "name": "Arjun Sohanpal",
    "phone": "07860 667056",
    "postcode": "CT29HR"
  },
  {
    "name": "Ruma Benefield",
    "phone": "07916262798",
    "postcode": "CT29BT"
  },
  {
    "name": "Ruma Benefield",
    "phone": "07916262796",
    "postcode": "CT29BT"
  },
  {
    "name": "Safiya",
    "phone": "07766412372",
    "postcode": "CT29BT"
  },
  {
    "name": "jake keeys",
    "phone": "07860475278",
    "postcode": "CT29BT"
  },
  {
    "name": "Safiya",
    "phone": "07989305001",
    "postcode": "CT29BT"
  },
  {
    "name": "Kerry Oates",
    "phone": "07738109226",
    "postcode": "CT45PN"
  },
  {
    "name": "Spencer Davis",
    "phone": "07798577674",
    "postcode": "CT20NH"
  },
  {
    "name": "Elle Healey",
    "phone": "07702079013",
    "postcode": "CT20NH"
  },
  {
    "name": "Steve Robertson",
    "phone": "07809195631",
    "postcode": "CT29DX"
  },
  {
    "name": "Tracy Donnelly",
    "phone": "07956870366",
    "postcode": "CT29DX"
  },
  {
    "name": "Laura Harvey",
    "phone": "07903289261",
    "postcode": "CT29HE"
  },
  {
    "name": "Wes",
    "phone": "07895500016",
    "postcode": "CT20LQ"
  },
  {
    "name": "Lois Cox",
    "phone": "07506658014",
    "postcode": "CT29LS"
  },
  {
    "name": "Joel Youngs",
    "phone": "07834560318",
    "postcode": "CT20EE"
  },
  {
    "name": "Samantha Oatway",
    "phone": "07736470998",
    "postcode": "CT20NP"
  },
  {
    "name": "Jay Williamson",
    "phone": "07780475439",
    "postcode": "CT20EP"
  },
  {
    "name": "Steve Amos",
    "phone": "07892955179",
    "postcode": "CT20EP"
  },
  {
    "name": "Alan Francis",
    "phone": "07784178616",
    "postcode": "CT20NR"
  },
  {
    "name": "Lauren Francis",
    "phone": "07764865859",
    "postcode": "CT20NR"
  },
  {
    "name": "Jacqui Dennis",
    "phone": "01227710891",
    "postcode": "CT20LU"
  },
  {
    "name": "Matthew Parsons",
    "phone": "07468590740",
    "postcode": "CT29EE"
  },
  {
    "name": "Georgina Southgate",
    "phone": "07921541959",
    "postcode": "CT20JQ"
  },
  {
    "name": "Georgina Southgate",
    "phone": "07921541359",
    "postcode": "CT20JQ"
  },
  {
    "name": "Alice",
    "phone": "07793022350",
    "postcode": "CT12NE"
  },
  {
    "name": "Phuah Hua Keng",
    "phone": "07873229652",
    "postcode": "CT17HG"
  },
  {
    "name": "Michael Tayler",
    "phone": "07515288684",
    "postcode": "CT29AW"
  },
  {
    "name": "Warren Morgan",
    "phone": "07983726160",
    "postcode": "CT47LG"
  },
  {
    "name": "Robin Marfleet",
    "phone": "07786154303",
    "postcode": "CT47TT"
  },
  {
    "name": "Emma",
    "phone": "07940715387",
    "postcode": "CT29AN"
  },
  {
    "name": "Ashlie",
    "phone": "07447665244",
    "postcode": "CT20NN"
  },
  {
    "name": "Paul Taylor",
    "phone": "07800602420",
    "postcode": "CT20NN"
  },
  {
    "name": "Mrs A Jessop",
    "phone": "01227710112",
    "postcode": "CT20NN"
  },
  {
    "name": "Mrs A Jessop",
    "phone": "07817646413",
    "postcode": "CT20NN"
  },
  {
    "name": "Chris Web",
    "phone": "07584327551",
    "postcode": "CT13PE"
  },
  {
    "name": "Matthew Addy",
    "phone": "07393993901",
    "postcode": "CT20JU"
  },
  {
    "name": "Sophie George",
    "phone": "07859006216",
    "postcode": "CT20JU"
  },
  {
    "name": "Gaz Shaw",
    "phone": "07491116670",
    "postcode": "CT20FA"
  },
  {
    "name": "Drew Cunningham",
    "phone": "07083061105",
    "postcode": "CT20EL"
  },
  {
    "name": "Claire Gilmour",
    "phone": "07827963048",
    "postcode": "CT20EL"
  },
  {
    "name": "Megan Lintott",
    "phone": "07792113065",
    "postcode": "CT20LG"
  },
  {
    "name": "Megan Place",
    "phone": "07590208561",
    "postcode": "CT20LG"
  },
  {
    "name": "Emily Dyer",
    "phone": "07538275337",
    "postcode": "CT20NQ"
  },
  {
    "name": "adam phipps",
    "phone": "01227375559",
    "postcode": "CT20NQ"
  },
  {
    "name": "Ozan Yigit Bogan",
    "phone": "07712880340",
    "postcode": "CT27NU"
  },
  {
    "name": "carmen",
    "phone": "07799776310",
    "postcode": "CT27NU"
  },
  {
    "name": "Oliver Bottomley",
    "phone": "07597459038",
    "postcode": "CT20PD"
  },
  {
    "name": "Andrew",
    "phone": "07730680953",
    "postcode": "CT20PD"
  },
  {
    "name": "Claire Weatherly",
    "phone": "07960455349",
    "postcode": "CT20HS"
  },
  {
    "name": "Liv",
    "phone": "07841099685",
    "postcode": "CT20PE"
  },
  {
    "name": "Maria Lightfoot",
    "phone": "07740398868",
    "postcode": "CT20PE"
  },
  {
    "name": "Sophie Boghossian",
    "phone": "07791783525",
    "postcode": "CT29DQ"
  },
  {
    "name": "Joe Richards",
    "phone": "07730487327",
    "postcode": "CT20JR"
  },
  {
    "name": "Matthew",
    "phone": "07463590740",
    "postcode": "CT29EB"
  },
  {
    "name": "Callum William Mantell",
    "phone": "07984340184",
    "postcode": "CT29EB"
  },
  {
    "name": "Clive Sarireni",
    "phone": "07964088391",
    "postcode": "CT13SS"
  },
  {
    "name": "Sandra Maurer",
    "phone": "07514263882",
    "postcode": "CT13SS"
  },
  {
    "name": "Stewart Nisbet",
    "phone": "07947707323",
    "postcode": "CT20BF"
  },
  {
    "name": "Anita Gaisford",
    "phone": "01227711840",
    "postcode": "CT20BF"
  },
  {
    "name": "John Griffiths",
    "phone": "07889545262",
    "postcode": "CT29HB"
  },
  {
    "name": "Louise",
    "phone": "07771971725",
    "postcode": "CT20QG"
  },
  {
    "name": "Azz",
    "phone": "07568542906",
    "postcode": "CT20QU"
  },
  {
    "name": "Obaid Almansoori",
    "phone": "07341599595",
    "postcode": "Ct27X"
  },
  {
    "name": "Danny Maguire",
    "phone": "07376053441",
    "postcode": "CT29BZ"
  },
  {
    "name": "David Weston",
    "phone": "07814276137",
    "postcode": "CT29BZ"
  },
  {
    "name": "Sue Morgan",
    "phone": "07792929847",
    "postcode": "CT29BZ"
  },
  {
    "name": "Kieran Bulpitt",
    "phone": "07884350025",
    "postcode": "CT20BN"
  },
  {
    "name": "Gary warner",
    "phone": "07858985244",
    "postcode": "CT29BP"
  },
  {
    "name": "James",
    "phone": "07764751181",
    "postcode": "CT20NU"
  },
  {
    "name": "halima",
    "phone": "07939966272",
    "postcode": "CT29ER"
  },
  {
    "name": "Siobhan Maroney",
    "phone": "07973249541",
    "postcode": "CT20QL"
  },
  {
    "name": "Siobhan Maroney",
    "phone": "07973 249541",
    "postcode": "CT20QL"
  },
  {
    "name": "Siobhan Maroney",
    "phone": "0  07973 249541",
    "postcode": "CT20QL"
  },
  {
    "name": "Siobhan Maroney",
    "phone": "0   07973 249541",
    "postcode": "CT20QL"
  },
  {
    "name": "Jason David",
    "phone": "07738669593",
    "postcode": "CT20BE"
  },
  {
    "name": "Yves",
    "phone": "01227713660",
    "postcode": "CT20EN"
  },
  {
    "name": "Daniel Bonthuys",
    "phone": "07908812946",
    "postcode": "CT20JJ"
  },
  {
    "name": "Lora McCourt",
    "phone": "01227500386",
    "postcode": "CT20JZ"
  },
  {
    "name": "cheri",
    "phone": "07715342987",
    "postcode": "CT20AQ"
  },
  {
    "name": "mary beck",
    "phone": "01227687266",
    "postcode": "CT20AQ"
  },
  {
    "name": "Alexander O'Brien,",
    "phone": "07887402655",
    "postcode": "CT27FT"
  },
  {
    "name": "jamie whitington",
    "phone": "07514536159",
    "postcode": "CT20HE"
  },
  {
    "name": "Andrew Whitington",
    "phone": "07742515019",
    "postcode": "CT20HE"
  },
  {
    "name": "Judith Craig",
    "phone": "07736100890",
    "postcode": "CT29BF"
  },
  {
    "name": "Luke Taylor",
    "phone": "07789861095",
    "postcode": "CT20QR"
  },
  {
    "name": "lee",
    "phone": "01227766978",
    "postcode": "CT29DA"
  },
  {
    "name": "Pippa",
    "phone": "07469882948",
    "postcode": "CT47NL"
  },
  {
    "name": "Lauren Steele",
    "phone": "07846131744",
    "postcode": "CT20EY"
  },
  {
    "name": "Matthew Charlwood",
    "phone": "07908543741",
    "postcode": "CT29AF"
  },
  {
    "name": "Giosie vizzini",
    "phone": "07803572911",
    "postcode": "CT29AE"
  },
  {
    "name": "Jordan",
    "phone": "07850292315",
    "postcode": "CT20NW"
  },
  {
    "name": "EMILY",
    "phone": "07803460104",
    "postcode": "CT20NW"
  },
  {
    "name": "alice",
    "phone": "07857189954",
    "postcode": "CT20AS"
  },
  {
    "name": "AndrewRintoul",
    "phone": "07802634425",
    "postcode": "CT20JB"
  },
  {
    "name": "Janet Doddimeade",
    "phone": "01227712448",
    "postcode": "CT20NB"
  },
  {
    "name": "Carl Read",
    "phone": "07963295824",
    "postcode": "CT20EG"
  },
  {
    "name": "Maria Bakali",
    "phone": "07929562109",
    "postcode": "CT29NB"
  },
  {
    "name": "Raph Borja",
    "phone": "07837001640",
    "postcode": "CT18DS"
  }
]